{"type":"FeatureCollection","features":[{"type":"Feature","id":1,"geometry":{"type":"Polygon","coordinates":[[[-122.25790576848701,37.976923402090684],[-122.26074402092837,37.976896240087903],[-122.26074461775762,37.977049456339145],[-122.26075972882869,37.978095028549554],[-122.26262086232146,37.978431184973353],[-122.2630257026461,37.978510333780946],[-122.2634912595631,37.978567331800512],[-122.26358989505964,37.978667088317657],[-122.265489677528,37.980409423481937],[-122.26602406363988,37.980773274180819],[-122.26678711392326,37.98111601585228],[-122.26738993153485,37.981327070662687],[-122.26798502723969,37.98138485772261],[-122.26910592949868,37.981454931599337],[-122.26959464129264,37.981403894491173],[-122.27017414120569,37.981240764455059],[-122.27028115909842,37.98114229014449],[-122.27071610335038,37.980915165763541],[-122.27103638551816,37.980768447769542],[-122.27119676963603,37.98074240601305],[-122.27226464618393,37.980776061898609],[-122.27240203557133,37.980844511837816],[-122.27442416945992,37.981897990673261],[-122.27531673823306,37.982029680431587],[-122.27655290262129,37.982177001122828],[-122.2769112604542,37.982210749798902],[-122.27750673674683,37.982520845437044],[-122.27826206535492,37.981917135387761],[-122.2786202796641,37.981892297171399],[-122.27881090567152,37.981758279108533],[-122.27880360974898,37.980469418265692],[-122.2785057028842,37.980368448445191],[-122.26709989971984,37.974006950126899],[-122.26148504856604,37.973084281499744],[-122.26113117831449,37.973015202043911],[-122.2602954903938,37.972884011638371],[-122.25610942750127,37.975148524082442],[-122.2561053694278,37.976921023284035],[-122.25790576848701,37.976923402090684]]]},"properties":{"GLOBALID":"{F31D1992-BD5B-4286-B6A5-65C788D52707}","SHAPE.AREA":10627130.3121928,"SHAPE.LEN":16443.0199094995,"OBJECTID":1,"SITE_NAME":"Pinole Valley Park","AGNCY_NAME":"City of Pinole"}},{"type":"Feature","id":2,"geometry":{"type":"Polygon","coordinates":[[[-122.11202266395269,37.80886957662473],[-122.11196950367346,37.809116667494486],[-122.11173015235781,37.809342441055911],[-122.11189992848196,37.809537162278936],[-122.1120492872694,37.809640699510751],[-122.11214319172113,37.809883208411563],[-122.11216979839718,37.810056937223088],[-122.11229049686285,37.810157411769481],[-122.11275819386285,37.810027236668923],[-122.1131755149019,37.809910898363981],[-122.11395891317014,37.809766024234932],[-122.1139545296481,37.809532722627296],[-122.11372794881845,37.808390283924503],[-122.11137929510926,37.808401034864957],[-122.11137308957606,37.808918734568735],[-122.11149457645924,37.808953784237225],[-122.11168903083619,37.808884130808373],[-122.11198185262458,37.808684361106771],[-122.11202266395269,37.80886957662473]]]},"properties":{"GLOBALID":"{F6666BCD-E59D-4B79-B8CE-06CC55029082}","SHAPE.AREA":341110.21250157,"SHAPE.LEN":2704.30445153148,"OBJECTID":2,"SITE_NAME":"Rancho Laguna Park","AGNCY_NAME":"Town of Moraga"}},{"type":"Feature","id":3,"geometry":{"type":"Polygon","coordinates":[[[-122.21714528427712,38.003642522254431],[-122.21960106224172,38.004855932854092],[-122.22013567144469,38.005805404111101],[-122.2215193775649,38.006121226074519],[-122.22183464943313,38.006418212325428],[-122.22389959215124,38.006532330021216],[-122.22446969952719,38.006671514549517],[-122.22470265304244,38.006978801400869],[-122.22653267854514,38.007124096429095],[-122.22762514436515,38.007368235920502],[-122.22825295555474,38.008045227482263],[-122.22849505344493,38.007834093603762],[-122.22833146826095,38.007443227311221],[-122.22836213009855,38.006981159183454],[-122.22857091632599,38.005966207264137],[-122.2278991158602,38.00447159747516],[-122.22792913715824,38.00345575515599],[-122.22833054148499,38.003436535420903],[-122.23035680243986,38.005208137927333],[-122.2305850135424,38.005407656442934],[-122.23115284695912,38.002125737545633],[-122.23331816347783,38.00236501563171],[-122.23490593004473,38.004493479584049],[-122.23651859396479,38.003737938573956],[-122.2349220351488,38.00158767266705],[-122.23319607030913,37.99926295168688],[-122.23302111740371,37.999027296855004],[-122.23300990940734,37.999012208422776],[-122.23106706183421,37.996395133270191],[-122.23192335359603,37.9939561455014],[-122.23017131964363,37.993382057075394],[-122.22892015197249,37.993304249668078],[-122.22824636374891,37.992633856145218],[-122.22795561005343,37.993222953543139],[-122.22725511544733,37.993805552654074],[-122.22620565179436,37.994335114372738],[-122.22528702172227,37.99450288765167],[-122.22411379647856,37.995137488575452],[-122.2229124551091,37.996311712189595],[-122.22229105324188,37.995098784864155],[-122.22036915834616,37.994803226766592],[-122.21966146524201,37.995340863457621],[-122.21865095314952,37.995526318065757],[-122.21771636822911,37.994729248114922],[-122.21568932872513,37.99418839852575],[-122.21532351344823,37.991927076638717],[-122.21598556853255,37.99134551153081],[-122.21640340471379,37.990208458519454],[-122.21617864096444,37.989483412735076],[-122.21487393398773,37.988590991030534],[-122.21355696745427,37.988937570363312],[-122.21245086509786,37.987963051827975],[-122.21208918273047,37.986364258660373],[-122.21112008443531,37.986100123713726],[-122.20903802934617,37.986047494948139],[-122.20853432487084,37.985702485821477],[-122.20772458223431,37.985373136238501],[-122.20746925131381,37.984154474137938],[-122.20717801467129,37.982787366115986],[-122.2067065247933,37.982577925479241],[-122.20615877786567,37.982755394243675],[-122.2057760797118,37.982928318265039],[-122.20497847677328,37.983172373013034],[-122.20427681158162,37.98326144849387],[-122.20437670283303,37.983687023522634],[-122.20207833004051,37.985484421146538],[-122.19384952804909,37.983560794776395],[-122.19392477938558,37.991601377295183],[-122.19958547325712,37.996050966264526],[-122.19926197519089,37.996307166250425],[-122.20060687606504,37.99685308736435],[-122.20189555777104,37.997469517006692],[-122.20347190714477,37.998359569276509],[-122.20327036799955,37.998582671815221],[-122.20389709443671,37.998937938239948],[-122.20443231898632,37.999317090113891],[-122.20491453179879,37.999738431775363],[-122.20536017422896,38.000221029957366],[-122.20631587920408,38.001366582977496],[-122.20656507003547,38.001008279877894],[-122.20808480091408,38.00166262751052],[-122.20900262940707,38.002060479870998],[-122.20951217861314,38.002302522925142],[-122.20951384394317,38.002456436090618],[-122.20891634767484,38.003315577971804],[-122.20962046413534,38.00396688589025],[-122.20962356443097,38.00226555666903],[-122.21191972066255,38.002896923630658],[-122.2134041539499,38.003536401824483],[-122.21456959052982,38.004296495536323],[-122.21502025037366,38.0049358666583],[-122.21541658255799,38.003768809095952],[-122.21478706539915,38.000041023563618],[-122.21577972505871,38.000180149672389],[-122.21694051747352,38.001760102638016],[-122.21714528427712,38.003642522254431]]]},"properties":{"GLOBALID":"{9D85846F-E259-4788-873F-4BC9849FBDFE}","SHAPE.AREA":50766428.790167302,"SHAPE.LEN":46528.0522981627,"OBJECTID":3,"SITE_NAME":"Fernandez Ranch","AGNCY_NAME":"John Muir Land Trust"}},{"type":"Feature","id":4,"geometry":{"type":"Polygon","coordinates":[[[-122.13112613657707,37.732273164249015],[-122.13235901766122,37.731731741366069],[-122.13124057821146,37.730432635002188],[-122.13066324385123,37.730127150835564],[-122.12985114657073,37.73001085584918],[-122.12889301433296,37.729937796666754],[-122.12946228365624,37.730348951526715],[-122.12986993161404,37.730884624048848],[-122.13056811089524,37.73118542171423],[-122.13074770281388,37.731604841123449],[-122.13112613657707,37.732273164249015]]]},"properties":{"GLOBALID":"{FC0F0BB4-9534-4868-AFE6-6DA2C0C48FBF}","SHAPE.AREA":327000.99524352798,"SHAPE.LEN":2806.3374998832505,"OBJECTID":4,"SITE_NAME":"Chabot Park","AGNCY_NAME":"City of San Leandro"}}]}