{"type":"FeatureCollection","features":[{"type":"Feature","id":1,"geometry":null,"properties":{"FONTSIZE":null,"XOFFSET":null,"YOFFSET":null,"ANGLE":null,"FONTLEADING":null,"WORDSPACING":null,"CHARACTERWIDTH":null,"CHARACTERSPACING":null,"FLIPANGLE":null,"OVERRIDE":null,"SHAPE.AREA":null,"SHAPE.LEN":null,"OBJECTID":1,"FEATUREID":5,"ZORDER":null,"ANNOTATIONCLASSID":0,"SYMBOLID":null,"STATUS":0,"TEXTSTRING":null,"FONTNAME":null,"BOLD":null,"ITALIC":null,"UNDERLINE":null,"VERTICALALIGNMENT":null,"HORIZONTALALIGNMENT":null,"SHAPE":null}},{"type":"Feature","id":2,"geometry":{"type":"Polygon","coordinates":[[[-122.20554385895436,37.918976369025124],[-122.2005455819065,37.926761393896854],[-122.20246361415246,37.927534110644444],[-122.20746174186043,37.919749005068546],[-122.20554385895436,37.918976369025124]]]},"properties":{"FONTSIZE":24,"XOFFSET":0,"YOFFSET":0,"ANGLE":62.000002819999999,"FONTLEADING":0,"WORDSPACING":100,"CHARACTERWIDTH":100,"CHARACTERSPACING":0,"FLIPANGLE":90,"OVERRIDE":192,"SHAPE.AREA":1973908.2224737899,"SHAPE.LEN":7601.9966118778102,"OBJECTID":2,"FEATUREID":2,"ZORDER":null,"ANNOTATIONCLASSID":0,"SYMBOLID":0,"STATUS":0,"TEXTSTRING":"Briones Res.","FONTNAME":"Arial","BOLD":0,"ITALIC":1,"UNDERLINE":0,"VERTICALALIGNMENT":3,"HORIZONTALALIGNMENT":1}},{"type":"Feature","id":3,"geometry":{"type":"Polygon","coordinates":[[[-122.25189797434025,37.934167855970436],[-122.24499025136531,37.925087188223863],[-122.24314709969805,37.925966793745104],[-122.25005467882308,37.93504756655738],[-122.25189797434025,37.934167855970436]]]},"properties":{"FONTSIZE":24,"XOFFSET":0,"YOFFSET":0,"ANGLE":-59.999991829999999,"FONTLEADING":0,"WORDSPACING":100,"CHARACTERWIDTH":100,"CHARACTERSPACING":0,"FLIPANGLE":160,"OVERRIDE":208,"SHAPE.AREA":2395998.7585140401,"SHAPE.LEN":8962.1315326110107,"OBJECTID":3,"FEATUREID":1,"ZORDER":null,"ANNOTATIONCLASSID":0,"SYMBOLID":0,"STATUS":0,"TEXTSTRING":"San Pablo Res.","FONTNAME":"Arial","BOLD":0,"ITALIC":1,"UNDERLINE":0,"VERTICALALIGNMENT":3,"HORIZONTALALIGNMENT":1}},{"type":"Feature","id":4,"geometry":{"type":"Polygon","coordinates":[[[-122.10514280887456,37.776160168804552],[-122.1029889307936,37.762199011389335],[-122.10121295694468,37.762371651116176],[-122.1033665073562,37.776332839638883],[-122.10514280887456,37.776160168804552]]]},"properties":{"FONTSIZE":20,"XOFFSET":0,"YOFFSET":0,"ANGLE":-83.99999493,"FONTLEADING":0,"WORDSPACING":100,"CHARACTERWIDTH":100,"CHARACTERSPACING":0,"FLIPANGLE":90,"OVERRIDE":192,"SHAPE.AREA":2648938.1282200501,"SHAPE.LEN":11277.4885916809,"OBJECTID":4,"FEATUREID":4,"ZORDER":null,"ANNOTATIONCLASSID":0,"SYMBOLID":0,"STATUS":0,"TEXTSTRING":"Upper San Leandro Res.","FONTNAME":"Arial","BOLD":0,"ITALIC":1,"UNDERLINE":0,"VERTICALALIGNMENT":3,"HORIZONTALALIGNMENT":1}},{"type":"Feature","id":5,"geometry":{"type":"Polygon","coordinates":[[[-122.11686379869069,37.728913154194309],[-122.10790479433676,37.722038213243636],[-122.10616513996757,37.723468338730896],[-122.11512415695097,37.730343411246992],[-122.11686379869069,37.728913154194309]]]},"properties":{"FONTSIZE":28,"XOFFSET":0,"YOFFSET":0,"ANGLE":-45,"FONTLEADING":0,"WORDSPACING":100,"CHARACTERWIDTH":100,"CHARACTERSPACING":0,"FLIPANGLE":90,"OVERRIDE":192,"SHAPE.AREA":2608792.6989731099,"SHAPE.LEN":8653.7902548446618,"OBJECTID":5,"FEATUREID":6,"ZORDER":null,"ANNOTATIONCLASSID":0,"SYMBOLID":0,"STATUS":0,"TEXTSTRING":"Chabot Res.","FONTNAME":"Arial","BOLD":0,"ITALIC":1,"UNDERLINE":0,"VERTICALALIGNMENT":3,"HORIZONTALALIGNMENT":1}},{"type":"Feature","id":6,"geometry":{"type":"Polygon","coordinates":[[[-122.14591521665118,37.880178200878284],[-122.13814097762975,37.88242522915462],[-122.13863211542159,37.883492812523535],[-122.14640645145511,37.881245752410194],[-122.14591521665118,37.880178200878284]]]},"properties":{"FONTSIZE":16,"XOFFSET":0,"YOFFSET":0,"ANGLE":19.029992620000002,"FONTLEADING":0,"WORDSPACING":100,"CHARACTERWIDTH":100,"CHARACTERSPACING":0,"FLIPANGLE":90,"OVERRIDE":128,"SHAPE.AREA":988188.68153246702,"SHAPE.LEN":5604.0219390727407,"OBJECTID":6,"FEATUREID":3,"ZORDER":null,"ANNOTATIONCLASSID":0,"SYMBOLID":0,"STATUS":0,"TEXTSTRING":"Lafayette Res.","FONTNAME":"Arial","BOLD":0,"ITALIC":1,"UNDERLINE":0,"VERTICALALIGNMENT":3,"HORIZONTALALIGNMENT":1}}]}