{"type":"FeatureCollection","features":[{"type":"Feature","id":2,"geometry":{"type":"Point","coordinates":[-122.28323302806442,37.944666567178565]},"properties":{"ELEVATION":1060,"LABEL":1060,"GLOBALID":"{60EAF82B-7C57-4CA6-9DA7-33AEFA32AD30}","OBJECTID":2,"ORIG_FID":1,"PEAK_NAME":null,"ELEV_2":null}},{"type":"Feature","id":3,"geometry":{"type":"Point","coordinates":[-122.23132527103644,37.892555675685898]},"properties":{"ELEVATION":1600,"LABEL":1600,"GLOBALID":"{5CD6ADFC-117B-473E-B8FB-1B41D53D8F08}","OBJECTID":3,"ORIG_FID":2,"PEAK_NAME":null,"ELEV_2":null}},{"type":"Feature","id":4,"geometry":{"type":"Point","coordinates":[-122.23443892770857,37.894086245145985]},"properties":{"ELEVATION":1640,"LABEL":1640,"GLOBALID":"{167F0BFB-6200-47AB-99CB-B09B1298DDB3}","OBJECTID":4,"ORIG_FID":3,"PEAK_NAME":null,"ELEV_2":null}},{"type":"Feature","id":6,"geometry":{"type":"Point","coordinates":[-122.20337057395096,37.876932210817145]},"properties":{"ELEVATION":1540,"LABEL":1540,"GLOBALID":"{9E76F8CB-17D4-4604-B545-02323267E650}","OBJECTID":6,"ORIG_FID":5,"PEAK_NAME":"Hump","ELEV_2":1531}},{"type":"Feature","id":7,"geometry":{"type":"Point","coordinates":[-122.15495757969845,37.805472057288512]},"properties":{"ELEVATION":1120,"LABEL":1120,"GLOBALID":"{46FF9BE2-B758-4905-9A51-9CC728A43344}","OBJECTID":7,"ORIG_FID":6,"PEAK_NAME":null,"ELEV_2":null}},{"type":"Feature","id":8,"geometry":{"type":"Point","coordinates":[-122.16433813157454,37.801324709816157]},"properties":{"ELEVATION":1220,"LABEL":1220,"GLOBALID":"{24ECDC50-2467-4149-BCFE-E664662429AC}","OBJECTID":8,"ORIG_FID":7,"PEAK_NAME":null,"ELEV_2":null}},{"type":"Feature","id":9,"geometry":{"type":"Point","coordinates":[-122.16040483623053,37.798662667754961]},"properties":{"ELEVATION":1200,"LABEL":1200,"GLOBALID":"{42401BD1-08CB-4CE6-A174-E3DC61C4F762}","OBJECTID":9,"ORIG_FID":8,"PEAK_NAME":null,"ELEV_2":null}},{"type":"Feature","id":11,"geometry":{"type":"Point","coordinates":[-122.15520212503355,37.793944738946649]},"properties":{"ELEVATION":1220,"LABEL":1220,"GLOBALID":"{5AF3B749-AE93-4F1C-9B29-32F99942C218}","OBJECTID":11,"ORIG_FID":10,"PEAK_NAME":null,"ELEV_2":null}},{"type":"Feature","id":12,"geometry":{"type":"Point","coordinates":[-122.19858147019457,37.858899453289013]},"properties":{"ELEVATION":1620,"LABEL":1620,"GLOBALID":"{E47C9E04-163E-4DBB-915D-75469A6DFA4B}","OBJECTID":12,"ORIG_FID":11,"PEAK_NAME":null,"ELEV_2":null}},{"type":"Feature","id":13,"geometry":{"type":"Point","coordinates":[-122.21336493561843,37.858313635140739]},"properties":{"ELEVATION":1420,"LABEL":1420,"GLOBALID":"{917603E5-5FC6-46D6-90B2-8C7B277D5070}","OBJECTID":13,"ORIG_FID":12,"PEAK_NAME":null,"ELEV_2":null}},{"type":"Feature","id":14,"geometry":{"type":"Point","coordinates":[-122.17463721800992,37.857007766129946]},"properties":{"ELEVATION":1180,"LABEL":1180,"GLOBALID":"{A63FD5CB-1421-4E5B-B360-91CE11C58352}","OBJECTID":14,"ORIG_FID":13,"PEAK_NAME":null,"ELEV_2":null}},{"type":"Feature","id":16,"geometry":{"type":"Point","coordinates":[-122.20918959263163,37.853329964807429]},"properties":{"ELEVATION":1440,"LABEL":1440,"GLOBALID":"{564E1E13-8DEA-42AB-88FE-55954648D608}","OBJECTID":16,"ORIG_FID":15,"PEAK_NAME":null,"ELEV_2":null}},{"type":"Feature","id":17,"geometry":{"type":"Point","coordinates":[-122.11127915197854,37.768579375173232]},"properties":{"ELEVATION":1000,"LABEL":1000,"GLOBALID":"{9C3C979A-4942-4E4F-B9EE-2C679648C751}","OBJECTID":17,"ORIG_FID":16,"PEAK_NAME":null,"ELEV_2":null}},{"type":"Feature","id":18,"geometry":{"type":"Point","coordinates":[-122.16812020345996,37.836287664534886]},"properties":{"ELEVATION":1200,"LABEL":1200,"GLOBALID":"{5EF137E3-527A-4933-ADAF-9189BCB743DE}","OBJECTID":18,"ORIG_FID":17,"PEAK_NAME":null,"ELEV_2":null}},{"type":"Feature","id":20,"geometry":{"type":"Point","coordinates":[-122.15819496779143,37.830236172771087]},"properties":{"ELEVATION":1060,"LABEL":1060,"GLOBALID":"{8FC5CA73-6DEE-404F-B343-922022B92976}","OBJECTID":20,"ORIG_FID":19,"PEAK_NAME":null,"ELEV_2":null}},{"type":"Feature","id":21,"geometry":{"type":"Point","coordinates":[-122.26229609860793,37.919188167690109]},"properties":{"ELEVATION":1200,"LABEL":1211,"GLOBALID":"{06A1FCCE-A30E-41C7-845D-856BF984B1C1}","OBJECTID":21,"ORIG_FID":22,"PEAK_NAME":"Wildcat Peak","ELEV_2":1211}},{"type":"Feature","id":22,"geometry":{"type":"Point","coordinates":[-122.22532111008722,37.889803974807371]},"properties":{"ELEVATION":1620,"LABEL":1620,"GLOBALID":"{4CFF861B-E6B9-49B8-9CA5-8C9544F10B17}","OBJECTID":22,"ORIG_FID":23,"PEAK_NAME":null,"ELEV_2":null}},{"type":"Feature","id":23,"geometry":{"type":"Point","coordinates":[-122.21531453155166,37.870298792807247]},"properties":{"ELEVATION":1640,"LABEL":1640,"GLOBALID":"{C73F2195-1B14-4A19-A676-94A6005952BB}","OBJECTID":23,"ORIG_FID":24,"PEAK_NAME":null,"ELEV_2":null}},{"type":"Feature","id":25,"geometry":{"type":"Point","coordinates":[-122.20283421566712,37.850773716260292]},"properties":{"ELEVATION":1480,"LABEL":1480,"GLOBALID":"{DBB06B4D-E3EB-405E-8153-61305E951D58}","OBJECTID":25,"ORIG_FID":26,"PEAK_NAME":null,"ELEV_2":null}},{"type":"Feature","id":26,"geometry":{"type":"Point","coordinates":[-122.16114507283156,37.840633547703703]},"properties":{"ELEVATION":1240,"LABEL":1240,"GLOBALID":"{DD510817-EE85-478A-8DF5-4CDD3BF2F0F2}","OBJECTID":26,"ORIG_FID":27,"PEAK_NAME":null,"ELEV_2":null}},{"type":"Feature","id":27,"geometry":{"type":"Point","coordinates":[-122.19058615871386,37.853472524044491]},"properties":{"ELEVATION":1680,"LABEL":1680,"GLOBALID":"{21DA4BD4-7217-4924-9A09-C21106B4B6BF}","OBJECTID":27,"ORIG_FID":28,"PEAK_NAME":null,"ELEV_2":null}},{"type":"Feature","id":29,"geometry":{"type":"Point","coordinates":[-122.09931798263588,37.803980430151363]},"properties":{"ELEVATION":1080,"LABEL":1080,"GLOBALID":"{D784AD73-475B-4CA4-95DE-3B0A8299E157}","OBJECTID":29,"ORIG_FID":30,"PEAK_NAME":null,"ELEV_2":null}},{"type":"Feature","id":30,"geometry":{"type":"Point","coordinates":[-122.15290426943174,37.815407808573262]},"properties":{"ELEVATION":1100,"LABEL":1100,"GLOBALID":"{0B875856-CDB3-44A4-A936-9C3478ADE0BC}","OBJECTID":30,"ORIG_FID":31,"PEAK_NAME":null,"ELEV_2":null}},{"type":"Feature","id":31,"geometry":{"type":"Point","coordinates":[-122.13811657625897,37.781572755464005]},"properties":{"ELEVATION":1080,"LABEL":1080,"GLOBALID":"{4CC86581-1B30-4647-AC25-84CEC1D95D0D}","OBJECTID":31,"ORIG_FID":32,"PEAK_NAME":null,"ELEV_2":null}},{"type":"Feature","id":32,"geometry":{"type":"Point","coordinates":[-122.06277744568118,37.774963074139613]},"properties":{"ELEVATION":1000,"LABEL":1000,"GLOBALID":"{F468A273-BA88-49C2-A596-A6B328731D14}","OBJECTID":32,"ORIG_FID":33,"PEAK_NAME":null,"ELEV_2":null}},{"type":"Feature","id":34,"geometry":{"type":"Point","coordinates":[-122.09650772111881,37.747280250693301]},"properties":{"ELEVATION":1020,"LABEL":1020,"GLOBALID":"{DEB31492-08B0-4294-BA0B-F52929A267A0}","OBJECTID":34,"ORIG_FID":35,"PEAK_NAME":"San Leandro Hills","ELEV_2":null}},{"type":"Feature","id":35,"geometry":{"type":"Point","coordinates":[-122.06814013191835,37.755536866819781]},"properties":{"ELEVATION":1160,"LABEL":1160,"GLOBALID":"{E9ECF550-18CD-4134-99D7-0BA37E4EA1A8}","OBJECTID":35,"ORIG_FID":36,"PEAK_NAME":null,"ELEV_2":null}},{"type":"Feature","id":36,"geometry":{"type":"Point","coordinates":[-122.06266804929939,37.741070265489078]},"properties":{"ELEVATION":1040,"LABEL":1040,"GLOBALID":"{932B7F17-C820-43BE-A77A-33CB01064865}","OBJECTID":36,"ORIG_FID":37,"PEAK_NAME":"Cull Pk","ELEV_2":1051}},{"type":"Feature","id":38,"geometry":{"type":"Point","coordinates":[-122.16192640683489,37.982142786710469]},"properties":{"ELEVATION":1040,"LABEL":1040,"GLOBALID":"{7C357752-AA3A-4CA4-9181-592529FF90EC}","OBJECTID":38,"ORIG_FID":39,"PEAK_NAME":null,"ELEV_2":null}},{"type":"Feature","id":39,"geometry":{"type":"Point","coordinates":[-122.21455788634614,37.943130576030505]},"properties":{"ELEVATION":1100,"LABEL":1109,"GLOBALID":"{03F5030B-0596-49D0-8020-3C678108DC77}","OBJECTID":39,"ORIG_FID":40,"PEAK_NAME":"Sobrante Hill","ELEV_2":1100}},{"type":"Feature","id":40,"geometry":{"type":"Point","coordinates":[-122.19678399106245,37.943663096338227]},"properties":{"ELEVATION":1120,"LABEL":1120,"GLOBALID":"{B339E304-BF2F-4E06-B4CF-458AB9C77A7C}","OBJECTID":40,"ORIG_FID":41,"PEAK_NAME":null,"ELEV_2":null}},{"type":"Feature","id":42,"geometry":{"type":"Point","coordinates":[-122.19232549201571,37.941917725570455]},"properties":{"ELEVATION":1120,"LABEL":1120,"GLOBALID":"{B6697BBA-7ABE-441E-B057-54332981833A}","OBJECTID":42,"ORIG_FID":43,"PEAK_NAME":null,"ELEV_2":null}},{"type":"Feature","id":43,"geometry":{"type":"Point","coordinates":[-122.24374967492182,37.902368131743685]},"properties":{"ELEVATION":1340,"LABEL":1340,"GLOBALID":"{C1031B1B-FF78-44D5-9E6E-5196D08D2954}","OBJECTID":43,"ORIG_FID":45,"PEAK_NAME":null,"ELEV_2":null}},{"type":"Feature","id":44,"geometry":{"type":"Point","coordinates":[-122.192878539961,37.850073426972479]},"properties":{"ELEVATION":1760,"LABEL":1760,"GLOBALID":"{A142E829-BB97-4607-AA51-97D7C5300DF9}","OBJECTID":44,"ORIG_FID":46,"PEAK_NAME":"Roundtop Pk","ELEV_2":1763}},{"type":"Feature","id":45,"geometry":{"type":"Point","coordinates":[-122.2266147799437,37.858352599998497]},"properties":{"ELEVATION":1240,"LABEL":1240,"GLOBALID":"{A5CF6F7A-F4B1-44AB-BA9E-DB3A7BF589D2}","OBJECTID":45,"ORIG_FID":47,"PEAK_NAME":null,"ELEV_2":null}},{"type":"Feature","id":47,"geometry":{"type":"Point","coordinates":[-122.16187816118112,37.831775008183506]},"properties":{"ELEVATION":1080,"LABEL":1080,"GLOBALID":"{66512B8A-ADB7-4611-A6C8-105673E8A00F}","OBJECTID":47,"ORIG_FID":49,"PEAK_NAME":null,"ELEV_2":null}},{"type":"Feature","id":48,"geometry":{"type":"Point","coordinates":[-122.07443936070779,37.777762788553197]},"properties":{"ELEVATION":1080,"LABEL":1080,"GLOBALID":"{E6198EE7-DF08-4B35-BE37-4FD0AA8CD9BE}","OBJECTID":48,"ORIG_FID":50,"PEAK_NAME":null,"ELEV_2":null}},{"type":"Feature","id":49,"geometry":{"type":"Point","coordinates":[-122.09626810526001,37.770656655033264]},"properties":{"ELEVATION":1040,"LABEL":1040,"GLOBALID":"{40625B7D-4605-4ACB-B458-08B663728C16}","OBJECTID":49,"ORIG_FID":51,"PEAK_NAME":null,"ELEV_2":null}},{"type":"Feature","id":50,"geometry":{"type":"Point","coordinates":[-122.20682265763703,37.982491028241782]},"properties":{"ELEVATION":1040,"LABEL":1040,"GLOBALID":"{6F377955-119F-439F-A6C7-7C23CEF53074}","OBJECTID":50,"ORIG_FID":53,"PEAK_NAME":"Pinole Peak","ELEV_2":1059}},{"type":"Feature","id":52,"geometry":{"type":"Point","coordinates":[-122.17241961046028,37.980826455286007]},"properties":{"ELEVATION":1020,"LABEL":1020,"GLOBALID":"{55CD6FAA-4664-46C1-831B-8157C956EE21}","OBJECTID":52,"ORIG_FID":55,"PEAK_NAME":null,"ELEV_2":null}},{"type":"Feature","id":53,"geometry":{"type":"Point","coordinates":[-122.16403654872666,37.983966136830134]},"properties":{"ELEVATION":1000,"LABEL":1000,"GLOBALID":"{54E25D66-CBEE-410E-80E1-F73DB5DBF6F7}","OBJECTID":53,"ORIG_FID":56,"PEAK_NAME":null,"ELEV_2":null}},{"type":"Feature","id":54,"geometry":{"type":"Point","coordinates":[-122.2158562427453,37.881449696040846]},"properties":{"ELEVATION":1640,"LABEL":1640,"GLOBALID":"{C76886C0-26FF-4A28-8FF2-CAEA07116E5A}","OBJECTID":54,"ORIG_FID":58,"PEAK_NAME":"Eureka Peak","ELEV_2":1625}},{"type":"Feature","id":56,"geometry":{"type":"Point","coordinates":[-122.11061877876973,37.794645347375003]},"properties":{"ELEVATION":1160,"LABEL":1160,"GLOBALID":"{372E2A14-E43F-47C0-AEFB-64311DBBE0EC}","OBJECTID":56,"ORIG_FID":60,"PEAK_NAME":null,"ELEV_2":null}},{"type":"Feature","id":57,"geometry":{"type":"Point","coordinates":[-122.04546575296314,37.741271892582766]},"properties":{"ELEVATION":1080,"LABEL":1080,"GLOBALID":"{F21D8526-DC93-49CE-B33E-5EFBF689D171}","OBJECTID":57,"ORIG_FID":61,"PEAK_NAME":null,"ELEV_2":null}},{"type":"Feature","id":58,"geometry":{"type":"Point","coordinates":[-122.17055790784661,37.980025638851998]},"properties":{"ELEVATION":1060,"LABEL":1060,"GLOBALID":"{E7E8AC4C-764F-4733-9565-EACCAD3E31CA}","OBJECTID":58,"ORIG_FID":62,"PEAK_NAME":null,"ELEV_2":null}},{"type":"Feature","id":59,"geometry":{"type":"Point","coordinates":[-122.18521519198973,37.955520577459332]},"properties":{"ELEVATION":1040,"LABEL":1040,"GLOBALID":"{43943214-7325-4B95-A77D-5326FAC4143A}","OBJECTID":59,"ORIG_FID":63,"PEAK_NAME":null,"ELEV_2":1040}},{"type":"Feature","id":60,"geometry":{"type":"Point","coordinates":[-122.27809992695444,37.93917849874957]},"properties":{"ELEVATION":1040,"LABEL":1040,"GLOBALID":"{659EEB83-E3F0-40BF-93AD-7DA004A425CF}","OBJECTID":60,"ORIG_FID":64,"PEAK_NAME":null,"ELEV_2":null}},{"type":"Feature","id":61,"geometry":{"type":"Point","coordinates":[-122.22263787187191,37.863356366271638]},"properties":{"ELEVATION":1440,"LABEL":1440,"GLOBALID":"{FA54ABB1-DF78-4E5D-8F29-6318EEF272F6}","OBJECTID":61,"ORIG_FID":65,"PEAK_NAME":null,"ELEV_2":null}},{"type":"Feature","id":62,"geometry":{"type":"Point","coordinates":[-122.21284848415324,37.869021171126988]},"properties":{"ELEVATION":1680,"LABEL":1680,"GLOBALID":"{7CE1CFAF-DA51-45C3-AD4D-B4A16600F061}","OBJECTID":62,"ORIG_FID":66,"PEAK_NAME":null,"ELEV_2":null}},{"type":"Feature","id":63,"geometry":{"type":"Point","coordinates":[-122.17764824093184,37.84907406351612]},"properties":{"ELEVATION":1460,"LABEL":1460,"GLOBALID":"{6CF6A0D5-FD88-4117-9EEC-F04C792E0798}","OBJECTID":63,"ORIG_FID":67,"PEAK_NAME":null,"ELEV_2":null}},{"type":"Feature","id":64,"geometry":{"type":"Point","coordinates":[-122.17575016811085,37.843333891057405]},"properties":{"ELEVATION":1260,"LABEL":1260,"GLOBALID":"{3488F1BA-3A60-42D3-B571-F768A12D8968}","OBJECTID":64,"ORIG_FID":68,"PEAK_NAME":null,"ELEV_2":null}},{"type":"Feature","id":65,"geometry":{"type":"Point","coordinates":[-122.14383604601747,37.858719377318991]},"properties":{"ELEVATION":1160,"LABEL":1160,"GLOBALID":"{98F9B61B-64E4-490F-8885-6C4FE64042D9}","OBJECTID":65,"ORIG_FID":69,"PEAK_NAME":null,"ELEV_2":null}},{"type":"Feature","id":66,"geometry":{"type":"Point","coordinates":[-122.09799423688933,37.820073070349189]},"properties":{"ELEVATION":1280,"LABEL":1280,"GLOBALID":"{4C11FE90-3DE3-472F-94EB-C8BCD6E078C1}","OBJECTID":66,"ORIG_FID":70,"PEAK_NAME":null,"ELEV_2":null}},{"type":"Feature","id":67,"geometry":{"type":"Point","coordinates":[-122.18439227266879,37.833518876995377]},"properties":{"ELEVATION":1360,"LABEL":1360,"GLOBALID":"{4E967608-CCD7-4BA2-9CCA-D46F92E08D63}","OBJECTID":67,"ORIG_FID":71,"PEAK_NAME":null,"ELEV_2":null}},{"type":"Feature","id":68,"geometry":{"type":"Point","coordinates":[-122.15957613380615,37.831002481236673]},"properties":{"ELEVATION":1080,"LABEL":1080,"GLOBALID":"{1934147E-3D74-481B-80A8-8F890DCF647D}","OBJECTID":68,"ORIG_FID":72,"PEAK_NAME":null,"ELEV_2":null}},{"type":"Feature","id":69,"geometry":{"type":"Point","coordinates":[-122.07595850350219,37.761945898804861]},"properties":{"ELEVATION":1120,"LABEL":1120,"GLOBALID":"{A2964F55-A664-4F27-9574-8FAB7D5FE865}","OBJECTID":69,"ORIG_FID":73,"PEAK_NAME":null,"ELEV_2":null}},{"type":"Feature","id":70,"geometry":{"type":"Point","coordinates":[-122.07342920245837,37.770183478153051]},"properties":{"ELEVATION":1080,"LABEL":1080,"GLOBALID":"{EADAF2B6-C9E8-4B21-A948-0222E0F22C9B}","OBJECTID":70,"ORIG_FID":74,"PEAK_NAME":null,"ELEV_2":null}},{"type":"Feature","id":71,"geometry":{"type":"Point","coordinates":[-122.1668445793749,37.976416559827115]},"properties":{"ELEVATION":1100,"LABEL":1100,"GLOBALID":"{434171FD-FADB-4B0A-9371-EFC47D5E3AF1}","OBJECTID":71,"ORIG_FID":75,"PEAK_NAME":null,"ELEV_2":null}},{"type":"Feature","id":72,"geometry":{"type":"Point","coordinates":[-122.22072932037909,37.937534255645801]},"properties":{"ELEVATION":1040,"LABEL":1040,"GLOBALID":"{3F3A63D8-BE61-4690-AF46-534762F85442}","OBJECTID":72,"ORIG_FID":76,"PEAK_NAME":null,"ELEV_2":null}},{"type":"Feature","id":73,"geometry":{"type":"Point","coordinates":[-122.21307126088763,37.879179479890865]},"properties":{"ELEVATION":1640,"LABEL":1640,"GLOBALID":"{8ADC3ED3-2E4F-4571-B7E2-92D70594E094}","OBJECTID":73,"ORIG_FID":77,"PEAK_NAME":null,"ELEV_2":null}},{"type":"Feature","id":74,"geometry":{"type":"Point","coordinates":[-122.22936032040879,37.881107301492406]},"properties":{"ELEVATION":1740,"LABEL":1740,"GLOBALID":"{53E9F29F-DE4F-4DD0-997C-77066765374F}","OBJECTID":74,"ORIG_FID":78,"PEAK_NAME":"Chapparal Peak","ELEV_2":null}},{"type":"Feature","id":75,"geometry":{"type":"Point","coordinates":[-122.18095156469222,37.819204423740658]},"properties":{"ELEVATION":1540,"LABEL":1540,"GLOBALID":"{BA77BCC0-6C8B-4CC5-9E85-C8996C7C2FAB}","OBJECTID":75,"ORIG_FID":79,"PEAK_NAME":null,"ELEV_2":null}},{"type":"Feature","id":76,"geometry":{"type":"Point","coordinates":[-122.14808567696245,37.813393280422225]},"properties":{"ELEVATION":1020,"LABEL":1020,"GLOBALID":"{3BDA5FF4-C8D3-49D6-83D5-2444E86CB1D9}","OBJECTID":76,"ORIG_FID":80,"PEAK_NAME":null,"ELEV_2":null}},{"type":"Feature","id":77,"geometry":{"type":"Point","coordinates":[-122.17359876230955,37.816135986987653]},"properties":{"ELEVATION":1540,"LABEL":1540,"GLOBALID":"{A543D87F-C46D-4815-90D3-EBD7654967D3}","OBJECTID":77,"ORIG_FID":81,"PEAK_NAME":null,"ELEV_2":null}},{"type":"Feature","id":78,"geometry":{"type":"Point","coordinates":[-122.12364350569239,37.806111255600406]},"properties":{"ELEVATION":1160,"LABEL":1160,"GLOBALID":"{136F2AED-0B26-4FD4-86D2-20FEBF2525DD}","OBJECTID":78,"ORIG_FID":82,"PEAK_NAME":null,"ELEV_2":null}},{"type":"Feature","id":79,"geometry":{"type":"Point","coordinates":[-122.16255321350658,37.799747205044298]},"properties":{"ELEVATION":1200,"LABEL":1200,"GLOBALID":"{60B41C22-F240-455A-90E9-3CFAB1A5773D}","OBJECTID":79,"ORIG_FID":83,"PEAK_NAME":null,"ELEV_2":null}},{"type":"Feature","id":80,"geometry":{"type":"Point","coordinates":[-122.22209546601476,37.88366220451023]},"properties":{"ELEVATION":1900,"LABEL":1905,"GLOBALID":"{4FCB814B-0DC3-4BE8-955C-B3658EEF3E75}","OBJECTID":80,"ORIG_FID":null,"PEAK_NAME":"Volmer Peak","ELEV_2":1905}},{"type":"Feature","id":81,"geometry":{"type":"Point","coordinates":[-122.16585380565861,37.91524608887805]},"properties":{"ELEVATION":1120,"LABEL":1120,"GLOBALID":"{11E34458-8823-495B-AF68-E7366146C48B}","OBJECTID":81,"ORIG_FID":null,"PEAK_NAME":"Black Hills","ELEV_2":1120}},{"type":"Feature","id":82,"geometry":{"type":"Point","coordinates":[-122.16716291699181,37.962002108773817]},"properties":{"ELEVATION":1160,"LABEL":1175,"GLOBALID":"{79019179-3F96-4F7B-A7F3-7F6FFADB61C6}","OBJECTID":82,"ORIG_FID":null,"PEAK_NAME":"Duarte Peak","ELEV_2":1175}},{"type":"Feature","id":83,"geometry":{"type":"Point","coordinates":[-122.16713277357213,37.94206998416032]},"properties":{"ELEVATION":1200,"LABEL":1235,"GLOBALID":"{3F9EF80B-F402-4561-ADD5-69751EEDBC05}","OBJECTID":83,"ORIG_FID":null,"PEAK_NAME":"Costa Peak","ELEV_2":1235}},{"type":"Feature","id":84,"geometry":{"type":"Point","coordinates":[-122.06441162204052,37.833454048948902]},"properties":{"ELEVATION":1800,"LABEL":1827,"GLOBALID":"{7859B783-1366-4FCF-BDAC-19EE928FA422}","OBJECTID":84,"ORIG_FID":null,"PEAK_NAME":"Trampas Peak","ELEV_2":null}},{"type":"Feature","id":85,"geometry":{"type":"Point","coordinates":[-122.05245696561761,37.825024552661596]},"properties":{"ELEVATION":1720,"LABEL":1787,"GLOBALID":"{743CA2A5-1A6F-41B0-9901-36BEE69525EA}","OBJECTID":85,"ORIG_FID":null,"PEAK_NAME":"Vail Peak","ELEV_2":null}},{"type":"Feature","id":86,"geometry":{"type":"Point","coordinates":[-122.04923938016573,37.826402046858114]},"properties":{"ELEVATION":1720,"LABEL":1720,"GLOBALID":"{51A12410-46F7-4877-B23D-88EB4E7A99E3}","OBJECTID":86,"ORIG_FID":null,"PEAK_NAME":"Eagle Peak","ELEV_2":null}},{"type":"Feature","id":87,"geometry":{"type":"Point","coordinates":[-122.12860443661516,37.937042442369311]},"properties":{"ELEVATION":1460,"LABEL":1483,"GLOBALID":"{85E00B14-8C38-4943-BCF7-AF8EB77CB6FC}","OBJECTID":87,"ORIG_FID":null,"PEAK_NAME":"Briones Peak","ELEV_2":null}},{"type":"Feature","id":88,"geometry":{"type":"Point","coordinates":[-122.14502789847356,37.943862270292314]},"properties":{"ELEVATION":1420,"LABEL":1424,"GLOBALID":"{946AA7F1-E99A-4AE5-A99C-90071E3F689F}","OBJECTID":88,"ORIG_FID":null,"PEAK_NAME":"Mott Peak","ELEV_2":null}},{"type":"Feature","id":89,"geometry":{"type":"Point","coordinates":[-122.13955778574528,37.917521515191005]},"properties":{"ELEVATION":1320,"LABEL":1357,"GLOBALID":"{CF0DCDBF-5DE3-4B3B-8A67-E9CA3E190B5A}","OBJECTID":89,"ORIG_FID":null,"PEAK_NAME":"Russel Peak","ELEV_2":null}},{"type":"Feature","id":321,"geometry":{"type":"Point","coordinates":[-122.19098709334662,37.844540652396809]},"properties":{"ELEVATION":null,"LABEL":null,"GLOBALID":"{A7587475-97B6-4D44-B79D-EC0CEBD32302}","OBJECTID":321,"ORIG_FID":null,"PEAK_NAME":null,"ELEV_2":null}},{"type":"Feature","id":1,"geometry":{"type":"Point","coordinates":[-122.15899179252175,37.981767715023672]},"properties":{"ELEVATION":1020,"LABEL":1020,"GLOBALID":"{2D29AF2D-60E8-4E1E-A722-3FC6A30D0E7E}","OBJECTID":1,"ORIG_FID":0,"PEAK_NAME":null,"ELEV_2":null}},{"type":"Feature","id":5,"geometry":{"type":"Point","coordinates":[-122.23348730334462,37.882058881137702]},"properties":{"ELEVATION":1740,"LABEL":1740,"GLOBALID":"{E7A05DC0-A8B5-410F-9883-9B7D837FE7D8}","OBJECTID":5,"ORIG_FID":4,"PEAK_NAME":"Grizzly Peak","ELEV_2":1759}},{"type":"Feature","id":10,"geometry":{"type":"Point","coordinates":[-122.14268040404549,37.868593847223529]},"properties":{"ELEVATION":1020,"LABEL":1020,"GLOBALID":"{AC8C2BFC-3641-4948-8BA7-E367A3B3D948}","OBJECTID":10,"ORIG_FID":9,"PEAK_NAME":null,"ELEV_2":null}},{"type":"Feature","id":15,"geometry":{"type":"Point","coordinates":[-122.14928479783924,37.790145892726166]},"properties":{"ELEVATION":1220,"LABEL":1220,"GLOBALID":"{F19CD1EE-DFB3-450B-BDAC-574366A676A6}","OBJECTID":15,"ORIG_FID":14,"PEAK_NAME":null,"ELEV_2":null}},{"type":"Feature","id":19,"geometry":{"type":"Point","coordinates":[-122.10896223733747,37.832867178912352]},"properties":{"ELEVATION":1160,"LABEL":1160,"GLOBALID":"{F70A3FBE-42AE-47BB-A96B-175574D753DC}","OBJECTID":19,"ORIG_FID":18,"PEAK_NAME":"St Mary's Peak","ELEV_2":1194}},{"type":"Feature","id":24,"geometry":{"type":"Point","coordinates":[-122.2329004434287,37.869395452821209]},"properties":{"ELEVATION":1280,"LABEL":1280,"GLOBALID":"{C177D657-1A5A-4404-9E29-95AC108D051A}","OBJECTID":24,"ORIG_FID":25,"PEAK_NAME":null,"ELEV_2":null}},{"type":"Feature","id":28,"geometry":{"type":"Point","coordinates":[-122.15626947066907,37.828845856742085]},"properties":{"ELEVATION":1060,"LABEL":1060,"GLOBALID":"{721293CB-4C1D-42C0-A14D-87A0E9E7698A}","OBJECTID":28,"ORIG_FID":29,"PEAK_NAME":null,"ELEV_2":null}},{"type":"Feature","id":33,"geometry":{"type":"Point","coordinates":[-122.14118126930578,37.791812584166657]},"properties":{"ELEVATION":1200,"LABEL":1200,"GLOBALID":"{1A2B1006-57A7-414B-9040-8A67DBDE13C8}","OBJECTID":33,"ORIG_FID":34,"PEAK_NAME":null,"ELEV_2":null}},{"type":"Feature","id":37,"geometry":{"type":"Point","coordinates":[-122.06490511262967,37.737978691871618]},"properties":{"ELEVATION":1040,"LABEL":1040,"GLOBALID":"{94EE7156-398C-4CB5-AE84-3054EB9CAEB2}","OBJECTID":37,"ORIG_FID":38,"PEAK_NAME":null,"ELEV_2":null}},{"type":"Feature","id":41,"geometry":{"type":"Point","coordinates":[-122.19273559896357,37.943591402562106]},"properties":{"ELEVATION":1120,"LABEL":1129,"GLOBALID":"{88C87FAD-A8D2-4E3C-B825-4EED5E01F660}","OBJECTID":41,"ORIG_FID":42,"PEAK_NAME":"Lawson Hill","ELEV_2":1129}},{"type":"Feature","id":46,"geometry":{"type":"Point","coordinates":[-122.15751733912892,37.829621802896021]},"properties":{"ELEVATION":1060,"LABEL":1060,"GLOBALID":"{F8A3D026-B4DB-446C-84DB-CDEDF6943DFA}","OBJECTID":46,"ORIG_FID":48,"PEAK_NAME":null,"ELEV_2":null}},{"type":"Feature","id":51,"geometry":{"type":"Point","coordinates":[-122.17398213064942,37.978969217854669]},"properties":{"ELEVATION":1060,"LABEL":1060,"GLOBALID":"{10A2C0ED-9197-49D7-9366-B9B26969A30A}","OBJECTID":51,"ORIG_FID":54,"PEAK_NAME":null,"ELEV_2":null}},{"type":"Feature","id":55,"geometry":{"type":"Point","coordinates":[-122.16200051425837,37.799245234848541]},"properties":{"ELEVATION":1200,"LABEL":1200,"GLOBALID":"{52A4FC30-4996-41E5-A9A1-6ADC9840BB9A}","OBJECTID":55,"ORIG_FID":59,"PEAK_NAME":null,"ELEV_2":null}}]}