{"type":"FeatureCollection","features":[{"type":"Feature","id":20,"geometry":{"type":"Point","coordinates":[-122.26554535399417,37.944582214991883]},"properties":{"COMMENT_":"Kennedy Grove","GLOBALID":"{53C1D7DE-1A96-43EB-84BC-EC9D1E883FF3}","OBJECTID":20,"TYPE":"Trailhead","PARKING":"None","RESTROOM":"No","PICNIC_AREA":"No","FISHING":"No","BOAT_LAUNCH":"No","BOAT_RENTAL":"No","PLAYGROUND":"No","DRINKING_WATER":"No","OWNERSHIP":"NA","PARKING_PIC":"WT","RESTROOM_PIC":"WT","PICNIC_PIC":"WT","FISHING_PIC":"WT","BOAT_L_PIC":"WT","BOAT_R_PIC":"WT","PLAY_PIC":"WT","WATER_PIC":"WT","PHOTO_FG":"Y","LABEL":"Kennedy Grove Trailhead","HORSE_PARKING":"WT","PHOTO_NAME":"Kennedy Grove Trailhead"}},{"type":"Feature","id":21,"geometry":{"type":"Point","coordinates":[-122.25847289861019,37.935295848430414]},"properties":{"COMMENT_":"Eagles Nest Trailhead East","GLOBALID":"{0EF7A223-EE58-4A7F-851A-96BF65E75377}","OBJECTID":21,"TYPE":"Trail Junction","PARKING":"None","RESTROOM":"No","PICNIC_AREA":"No","FISHING":"No","BOAT_LAUNCH":"No","BOAT_RENTAL":"No","PLAYGROUND":"No","DRINKING_WATER":"No","OWNERSHIP":"NA","PARKING_PIC":"WT","RESTROOM_PIC":"WT","PICNIC_PIC":"WT","FISHING_PIC":"WT","BOAT_L_PIC":"WT","BOAT_R_PIC":"WT","PLAY_PIC":"WT","WATER_PIC":"WT","PHOTO_FG":"Y","LABEL":"Eagle's Nest Trail Junction East","HORSE_PARKING":"WT","PHOTO_NAME":"Eagles Nest Trail Junction East"}},{"type":"Feature","id":22,"geometry":{"type":"Point","coordinates":[-122.0596645282088,37.813175187411446]},"properties":{"COMMENT_":"Rocky Ridge Trail Junction 3","GLOBALID":"{7B223461-800F-4032-A740-4995BD5FE949}","OBJECTID":22,"TYPE":"Trail Junction","PARKING":"None","RESTROOM":"No","PICNIC_AREA":"No","FISHING":"No","BOAT_LAUNCH":"No","BOAT_RENTAL":"No","PLAYGROUND":"No","DRINKING_WATER":"No","OWNERSHIP":"NA","PARKING_PIC":"WT","RESTROOM_PIC":"WT","PICNIC_PIC":"WT","FISHING_PIC":"WT","BOAT_L_PIC":"WT","BOAT_R_PIC":"WT","PLAY_PIC":"WT","WATER_PIC":"WT","PHOTO_FG":"Y","LABEL":"Rocky Ridge Loop Trail Junction 2","HORSE_PARKING":"WT","PHOTO_NAME":"Rocky Ridge Loop Trail Junction 2"}},{"type":"Feature","id":24,"geometry":{"type":"Point","coordinates":[-122.0557179598902,37.8078224868663]},"properties":{"COMMENT_":"Rocky Ridge Trail Junction 4","GLOBALID":"{B019C5F8-1CAE-44B3-B792-7DD59F18741D}","OBJECTID":24,"TYPE":"Trail Junction","PARKING":"None","RESTROOM":"No","PICNIC_AREA":"No","FISHING":"No","BOAT_LAUNCH":"No","BOAT_RENTAL":"No","PLAYGROUND":"No","DRINKING_WATER":"No","OWNERSHIP":"NA","PARKING_PIC":"WT","RESTROOM_PIC":"WT","PICNIC_PIC":"WT","FISHING_PIC":"WT","BOAT_L_PIC":"WT","BOAT_R_PIC":"WT","PLAY_PIC":"WT","WATER_PIC":"WT","PHOTO_FG":"Y","LABEL":"Rocky Ridge Loop Trail Junction 3","HORSE_PARKING":"WT","PHOTO_NAME":"Rocky Ridge Loop Trail Junction 3"}},{"type":"Feature","id":25,"geometry":{"type":"Point","coordinates":[-122.21671051505989,37.904757442668362]},"properties":{"COMMENT_":"Old San Pablo Trail ","GLOBALID":"{F7546B6A-5D21-48F3-B885-424955E12E35}","OBJECTID":25,"TYPE":"Trail Junction","PARKING":"None","RESTROOM":"No","PICNIC_AREA":"No","FISHING":"No","BOAT_LAUNCH":"No","BOAT_RENTAL":"No","PLAYGROUND":"No","DRINKING_WATER":"No","OWNERSHIP":"NA","PARKING_PIC":"WT","RESTROOM_PIC":"WT","PICNIC_PIC":"WT","FISHING_PIC":"WT","BOAT_L_PIC":"WT","BOAT_R_PIC":"WT","PLAY_PIC":"WT","WATER_PIC":"WT","PHOTO_FG":"Y","LABEL":"Old San Pablo Trail Junction","HORSE_PARKING":"WT","PHOTO_NAME":"Old San Pablo Trail Junction"}},{"type":"Feature","id":26,"geometry":{"type":"Point","coordinates":[-122.22121386107388,37.875814987584207]},"properties":{"COMMENT_":"Skyline Gardens","GLOBALID":"{4A578E27-438F-457F-BF70-5C861FB507B8}","OBJECTID":26,"TYPE":"Trailhead","PARKING":"Limited","RESTROOM":"No","PICNIC_AREA":"No","FISHING":"No","BOAT_LAUNCH":"No","BOAT_RENTAL":"No","PLAYGROUND":"No","DRINKING_WATER":"No","OWNERSHIP":"NA","PARKING_PIC":"parking","RESTROOM_PIC":"WT","PICNIC_PIC":"WT","FISHING_PIC":"WT","BOAT_L_PIC":"WT","BOAT_R_PIC":"WT","PLAY_PIC":"WT","WATER_PIC":"WT","PHOTO_FG":"Y","LABEL":"Skyline Gardens Trailhead","HORSE_PARKING":"WT","PHOTO_NAME":"Skyline Gardens Trailhead"}},{"type":"Feature","id":27,"geometry":{"type":"Point","coordinates":[-122.24490286827552,37.905281272169752]},"properties":{"COMMENT_":"Inspiration Point","GLOBALID":"{E90CE0AD-4E4E-4D82-8DF0-45AD1143207A}","OBJECTID":27,"TYPE":"Staging Area","PARKING":"Lot","RESTROOM":"ADA","PICNIC_AREA":"No","FISHING":"No","BOAT_LAUNCH":"No","BOAT_RENTAL":"No","PLAYGROUND":"No","DRINKING_WATER":"No","OWNERSHIP":"EBRPD","PARKING_PIC":"parking","RESTROOM_PIC":"ADA","PICNIC_PIC":"WT","FISHING_PIC":"WT","BOAT_L_PIC":"WT","BOAT_R_PIC":"WT","PLAY_PIC":"WT","WATER_PIC":"WT","PHOTO_FG":"Y","LABEL":"Inspiration Point Staging Area","HORSE_PARKING":"WT","PHOTO_NAME":"Inspiration Point Staging Area"}},{"type":"Feature","id":28,"geometry":{"type":"Point","coordinates":[-122.13962707165638,37.888007788905966]},"properties":{"COMMENT_":"Lafayette Recreation Area","GLOBALID":"{30A966C4-1454-4895-85CE-210DA94354A8}","OBJECTID":28,"TYPE":"Park Entrance","PARKING":"Lot","RESTROOM":"ADA","PICNIC_AREA":"Yes","FISHING":"Yes","BOAT_LAUNCH":"No","BOAT_RENTAL":"Yes","PLAYGROUND":"Yes","DRINKING_WATER":"Yes","OWNERSHIP":"EBMUD","PARKING_PIC":"parking","RESTROOM_PIC":"ADA","PICNIC_PIC":"picnic","FISHING_PIC":"fish","BOAT_L_PIC":"WT","BOAT_R_PIC":"boat-rental","PLAY_PIC":"playground","WATER_PIC":"drinking","PHOTO_FG":"Y","LABEL":"Lafayette Recreation Area Park Entrance","HORSE_PARKING":"WT","PHOTO_NAME":"Lafayette Recreation Area Park Entrance"}},{"type":"Feature","id":29,"geometry":{"type":"Point","coordinates":[-122.22320389045154,37.996020917862232]},"properties":{"COMMENT_":"Pinole valley Trailhead North","GLOBALID":"{7A68CA59-F375-43EE-B108-CBDB380D752D}","OBJECTID":29,"TYPE":"Trail Junction","PARKING":"None","RESTROOM":"No","PICNIC_AREA":"No","FISHING":"No","BOAT_LAUNCH":"No","BOAT_RENTAL":"No","PLAYGROUND":"No","DRINKING_WATER":"No","OWNERSHIP":"NA","PARKING_PIC":"WT","RESTROOM_PIC":"WT","PICNIC_PIC":"WT","FISHING_PIC":"WT","BOAT_L_PIC":"WT","BOAT_R_PIC":"WT","PLAY_PIC":"WT","WATER_PIC":"WT","PHOTO_FG":"N","LABEL":"Pinole Valley Trail Junction North","HORSE_PARKING":"WT","PHOTO_NAME":"Pinole Valley Trail Junction North"}},{"type":"Feature","id":30,"geometry":{"type":"Point","coordinates":[-122.18802950198126,37.880749644864721]},"properties":{"COMMENT_":"De Laveaga","GLOBALID":"{393AD685-0B5A-4E85-A5FE-AED858F4BAE9}","OBJECTID":30,"TYPE":"Trailhead","PARKING":"Limited","RESTROOM":"No","PICNIC_AREA":"No","FISHING":"No","BOAT_LAUNCH":"No","BOAT_RENTAL":"No","PLAYGROUND":"No","DRINKING_WATER":"No","OWNERSHIP":"NA","PARKING_PIC":"parking","RESTROOM_PIC":"WT","PICNIC_PIC":"WT","FISHING_PIC":"WT","BOAT_L_PIC":"WT","BOAT_R_PIC":"WT","PLAY_PIC":"WT","WATER_PIC":"WT","PHOTO_FG":"Y","LABEL":"De Laveaga Trailhead","HORSE_PARKING":"WT","PHOTO_NAME":"De Laveaga Trailhead"}},{"type":"Feature","id":31,"geometry":{"type":"Point","coordinates":[-122.16470204809065,37.92285603938727]},"properties":{"COMMENT_":"Bear Creek Staging","GLOBALID":"{833CFC01-F959-46BF-9B71-02543BC07B72}","OBJECTID":31,"TYPE":"Staging Area","PARKING":"Lot","RESTROOM":"Yes","PICNIC_AREA":"No","FISHING":"No","BOAT_LAUNCH":"No","BOAT_RENTAL":"No","PLAYGROUND":"No","DRINKING_WATER":"No","OWNERSHIP":"EBMUD","PARKING_PIC":"parking","RESTROOM_PIC":"restroom","PICNIC_PIC":"WT","FISHING_PIC":"WT","BOAT_L_PIC":"WT","BOAT_R_PIC":"WT","PLAY_PIC":"WT","WATER_PIC":"WT","PHOTO_FG":"Y","LABEL":"Bear Creek Staging Area","HORSE_PARKING":"phYes","PHOTO_NAME":"Bear Creek Staging Area"}},{"type":"Feature","id":33,"geometry":{"type":"Point","coordinates":[-122.20247651814952,37.913263835139524]},"properties":{"COMMENT_":"Briones Overlook Staging","GLOBALID":"{19BE9580-852D-48EF-BC8A-E5680777E828}","OBJECTID":33,"TYPE":"Staging Area","PARKING":"Lot","RESTROOM":"Yes","PICNIC_AREA":"No","FISHING":"No","BOAT_LAUNCH":"No","BOAT_RENTAL":"No","PLAYGROUND":"No","DRINKING_WATER":"No","OWNERSHIP":"EBMUD","PARKING_PIC":"parking","RESTROOM_PIC":"restroom","PICNIC_PIC":"WT","FISHING_PIC":"WT","BOAT_L_PIC":"WT","BOAT_R_PIC":"WT","PLAY_PIC":"WT","WATER_PIC":"WT","PHOTO_FG":"Y","LABEL":"Briones Overlook Staging Area","HORSE_PARKING":"phYes","PHOTO_NAME":"Briones Overlook Staging Area"}},{"type":"Feature","id":34,"geometry":{"type":"Point","coordinates":[-122.20083858082077,37.963571716221367]},"properties":{"COMMENT_":"Pereira ","GLOBALID":"{96B7C62F-198C-4CCA-9D2E-F3B6B1F15881}","OBJECTID":34,"TYPE":"Trailhead","PARKING":"Limited","RESTROOM":"No","PICNIC_AREA":"No","FISHING":"No","BOAT_LAUNCH":"No","BOAT_RENTAL":"No","PLAYGROUND":"No","DRINKING_WATER":"No","OWNERSHIP":"NA","PARKING_PIC":"parking","RESTROOM_PIC":"WT","PICNIC_PIC":"WT","FISHING_PIC":"WT","BOAT_L_PIC":"WT","BOAT_R_PIC":"WT","PLAY_PIC":"WT","WATER_PIC":"WT","PHOTO_FG":"Y","LABEL":"Pereira Trailhead","HORSE_PARKING":"WT","PHOTO_NAME":"Pereira Trailhead"}},{"type":"Feature","id":35,"geometry":{"type":"Point","coordinates":[-122.22145815686854,37.879879796079599]},"properties":{"COMMENT_":"Lomas Cantadas","GLOBALID":"{4FF90A95-A80C-43C2-9864-9A19A69B0DA8}","OBJECTID":35,"TYPE":"Trailhead","PARKING":"None","RESTROOM":"No","PICNIC_AREA":"No","FISHING":"No","BOAT_LAUNCH":"No","BOAT_RENTAL":"No","PLAYGROUND":"No","DRINKING_WATER":"No","OWNERSHIP":"NA","PARKING_PIC":"WT","RESTROOM_PIC":"WT","PICNIC_PIC":"WT","FISHING_PIC":"WT","BOAT_L_PIC":"WT","BOAT_R_PIC":"WT","PLAY_PIC":"WT","WATER_PIC":"WT","PHOTO_FG":"Y","LABEL":"Lomas Cantadas Trailhead","HORSE_PARKING":"WT","PHOTO_NAME":"Lomas Cantadas Trailhead"}},{"type":"Feature","id":36,"geometry":{"type":"Point","coordinates":[-122.0604452446765,37.798731846051332]},"properties":{"COMMENT_":"Rocky Ridge Trail Junction 5","GLOBALID":"{3F813E35-3289-4712-B318-59E253C4C65E}","OBJECTID":36,"TYPE":"Trail Junction","PARKING":"None","RESTROOM":"No","PICNIC_AREA":"No","FISHING":"No","BOAT_LAUNCH":"No","BOAT_RENTAL":"No","PLAYGROUND":"No","DRINKING_WATER":"No","OWNERSHIP":"NA","PARKING_PIC":"WT","RESTROOM_PIC":"WT","PICNIC_PIC":"WT","FISHING_PIC":"WT","BOAT_L_PIC":"WT","BOAT_R_PIC":"WT","PLAY_PIC":"WT","WATER_PIC":"WT","PHOTO_FG":"Y","LABEL":"Rocky Ridge Loop Trail Junction 4","HORSE_PARKING":"WT","PHOTO_NAME":"Rocky Ridge Loop Trail Junction 4"}},{"type":"Feature","id":37,"geometry":{"type":"Point","coordinates":[-122.24211385497644,37.971857270618223]},"properties":{"COMMENT_":"Pinole valley Trailhead South","GLOBALID":"{34A87F23-EFAD-4625-A0EB-7082347D97BF}","OBJECTID":37,"TYPE":"Trail Junction","PARKING":"None","RESTROOM":"No","PICNIC_AREA":"No","FISHING":"No","BOAT_LAUNCH":"No","BOAT_RENTAL":"No","PLAYGROUND":"No","DRINKING_WATER":"No","OWNERSHIP":"NA","PARKING_PIC":"WT","RESTROOM_PIC":"WT","PICNIC_PIC":"WT","FISHING_PIC":"WT","BOAT_L_PIC":"WT","BOAT_R_PIC":"WT","PLAY_PIC":"WT","WATER_PIC":"WT","PHOTO_FG":"Y","LABEL":"Pinole Valley Trail Junction South","HORSE_PARKING":"WT","PHOTO_NAME":"Pinole Valley Trail Junction South"}},{"type":"Feature","id":38,"geometry":{"type":"Point","coordinates":[-122.22166714289304,37.879923039476708]},"properties":{"COMMENT_":"Tilden Steam Trains","GLOBALID":"{76D04DB7-7597-405A-A108-0FFE032F076C}","OBJECTID":38,"TYPE":"Park Entrance","PARKING":"Lot","RESTROOM":"ADA","PICNIC_AREA":"No","FISHING":"No","BOAT_LAUNCH":"No","BOAT_RENTAL":"No","PLAYGROUND":"No","DRINKING_WATER":"Yes","OWNERSHIP":"EBRPD","PARKING_PIC":"parking","RESTROOM_PIC":"ADA","PICNIC_PIC":"WT","FISHING_PIC":"WT","BOAT_L_PIC":"WT","BOAT_R_PIC":"WT","PLAY_PIC":"WT","WATER_PIC":"drinking","PHOTO_FG":"Y","LABEL":"Tilden Steam Trains Park Entrance","HORSE_PARKING":"WT","PHOTO_NAME":"Tilden Steam Trains Park Entrance"}},{"type":"Feature","id":40,"geometry":{"type":"Point","coordinates":[-122.14664353758994,37.818374015140826]},"properties":{"COMMENT_":"Redwood Trailhead West","GLOBALID":"{8BF44034-2A27-4889-A8C5-3E2173F4F6BF}","OBJECTID":40,"TYPE":"Trailhead","PARKING":"None","RESTROOM":"No","PICNIC_AREA":"No","FISHING":"No","BOAT_LAUNCH":"No","BOAT_RENTAL":"No","PLAYGROUND":"No","DRINKING_WATER":"No","OWNERSHIP":"EBMUD","PARKING_PIC":"WT","RESTROOM_PIC":"WT","PICNIC_PIC":"WT","FISHING_PIC":"WT","BOAT_L_PIC":"WT","BOAT_R_PIC":"WT","PLAY_PIC":"WT","WATER_PIC":"WT","PHOTO_FG":"Y","LABEL":"Redwood Trailhead West","HORSE_PARKING":"WT","PHOTO_NAME":"Redwood Trailhead West"}},{"type":"Feature","id":43,"geometry":{"type":"Point","coordinates":[-122.07471315142634,37.738832115430142]},"properties":{"COMMENT_":"Ramage Peak Trailhead","GLOBALID":"{DD340844-0CAF-4170-B806-C9CB9A11D791}","OBJECTID":43,"TYPE":"Trail Junction","PARKING":"None","RESTROOM":"No","PICNIC_AREA":"No","FISHING":"No","BOAT_LAUNCH":"No","BOAT_RENTAL":"No","PLAYGROUND":"No","DRINKING_WATER":"No","OWNERSHIP":"EBMUD","PARKING_PIC":"WT","RESTROOM_PIC":"WT","PICNIC_PIC":"WT","FISHING_PIC":"WT","BOAT_L_PIC":"WT","BOAT_R_PIC":"WT","PLAY_PIC":"WT","WATER_PIC":"WT","PHOTO_FG":"Y","LABEL":"Ramage Peak Trail Junction","HORSE_PARKING":"WT","PHOTO_NAME":"Ramage Peak Trail Junction"}},{"type":"Feature","id":44,"geometry":{"type":"Point","coordinates":[-122.07415113374461,37.813372382748867]},"properties":{"COMMENT_":"Rocky Ridge/Fowler/Skyway Junct","GLOBALID":"{C95E8338-A5DD-43B1-9786-12F1EB465BCC}","OBJECTID":44,"TYPE":"Trail Junction","PARKING":"None","RESTROOM":"No","PICNIC_AREA":"No","FISHING":"No","BOAT_LAUNCH":"No","BOAT_RENTAL":"No","PLAYGROUND":"No","DRINKING_WATER":"No","OWNERSHIP":"EBMUD","PARKING_PIC":"WT","RESTROOM_PIC":"WT","PICNIC_PIC":"WT","FISHING_PIC":"WT","BOAT_L_PIC":"WT","BOAT_R_PIC":"WT","PLAY_PIC":"WT","WATER_PIC":"WT","PHOTO_FG":"Y","LABEL":"Rocky Ridge Trail Junction 2","HORSE_PARKING":"WT","PHOTO_NAME":"Rocky Ridge Trail Junction 2"}},{"type":"Feature","id":39,"geometry":{"type":"Point","coordinates":[-122.14656662121546,37.81840614729758]},"properties":{"COMMENT_":"Redwood Trailhead East","GLOBALID":"{FF8A5ECE-078D-40F0-9AB8-40D152AB02D2}","OBJECTID":39,"TYPE":"Trailhead","PARKING":"None","RESTROOM":"No","PICNIC_AREA":"No","FISHING":"No","BOAT_LAUNCH":"No","BOAT_RENTAL":"No","PLAYGROUND":"No","DRINKING_WATER":"No","OWNERSHIP":"EBMUD","PARKING_PIC":"WT","RESTROOM_PIC":"WT","PICNIC_PIC":"WT","FISHING_PIC":"WT","BOAT_L_PIC":"WT","BOAT_R_PIC":"WT","PLAY_PIC":"WT","WATER_PIC":"WT","PHOTO_FG":"Y","LABEL":"Redwood Trailhead East","HORSE_PARKING":"WT","PHOTO_NAME":"Redwood Trailhead East"}},{"type":"Feature","id":23,"geometry":{"type":"Point","coordinates":[-122.16179319431673,37.925814975156733]},"properties":{"COMMENT_":"Briones Regional Park","GLOBALID":"{AFFC7957-C403-4C21-81AB-E2AF0B013F88}","OBJECTID":23,"TYPE":"Park Entrance","PARKING":"Lot","RESTROOM":"ADA","PICNIC_AREA":"Yes","FISHING":"No","BOAT_LAUNCH":"No","BOAT_RENTAL":"No","PLAYGROUND":"No","DRINKING_WATER":"Yes","OWNERSHIP":"EBRPD","PARKING_PIC":"parking","RESTROOM_PIC":"ADA","PICNIC_PIC":"picnic","FISHING_PIC":"WT","BOAT_L_PIC":"WT","BOAT_R_PIC":"WT","PLAY_PIC":"WT","WATER_PIC":"drinking","PHOTO_FG":"Y","LABEL":"Briones Regional Park Entrance","HORSE_PARKING":"WT","PHOTO_NAME":"Briones Regional Park Entrance"}},{"type":"Feature","id":12,"geometry":{"type":"Point","coordinates":[-122.24485367685884,37.971648289396178]},"properties":{"COMMENT_":"Sobrante Ridge Trail Connector W","GLOBALID":"{D56FA171-4FDD-4B9A-80E0-E8F47399E6BC}","OBJECTID":12,"TYPE":"Trail Junction","PARKING":"None","RESTROOM":"No","PICNIC_AREA":"No","FISHING":"No","BOAT_LAUNCH":"No","BOAT_RENTAL":"No","PLAYGROUND":"No","DRINKING_WATER":"No","OWNERSHIP":"NA","PARKING_PIC":"WT","RESTROOM_PIC":"WT","PICNIC_PIC":"WT","FISHING_PIC":"WT","BOAT_L_PIC":"WT","BOAT_R_PIC":"WT","PLAY_PIC":"WT","WATER_PIC":"WT","PHOTO_FG":"Y","LABEL":"Sobrante Ridge Trail Connector West","HORSE_PARKING":"WT","PHOTO_NAME":"Sobrante Ridge Trail Connector West"}},{"type":"Feature","id":32,"geometry":{"type":"Point","coordinates":[-122.26044581527553,37.971896654340547]},"properties":{"COMMENT_":"Sobrante Ridge Trail Connector E","GLOBALID":"{6DF806E5-9A83-4A62-8ECD-C6A947A4E8FB}","OBJECTID":32,"TYPE":"Trail Junction","PARKING":"None","RESTROOM":"No","PICNIC_AREA":"No","FISHING":"No","BOAT_LAUNCH":"No","BOAT_RENTAL":"No","PLAYGROUND":"No","DRINKING_WATER":"No","OWNERSHIP":"NA","PARKING_PIC":"WT","RESTROOM_PIC":"WT","PICNIC_PIC":"WT","FISHING_PIC":"WT","BOAT_L_PIC":"WT","BOAT_R_PIC":"WT","PLAY_PIC":"WT","WATER_PIC":"WT","PHOTO_FG":"Y","LABEL":"Sobrante Ridge Trail Connector East","HORSE_PARKING":"WT","PHOTO_NAME":"Sobrante Ridge Trail Connector East"}},{"type":"Feature","id":13,"geometry":{"type":"Point","coordinates":[-122.26448675976279,37.930035329689275]},"properties":{"COMMENT_":"Eagles Nest Trailhead West","GLOBALID":"{1CADC743-AF83-4347-B12A-A64E93CE6EA2}","OBJECTID":13,"TYPE":"Trail Junction","PARKING":"None","RESTROOM":"No","PICNIC_AREA":"No","FISHING":"No","BOAT_LAUNCH":"No","BOAT_RENTAL":"No","PLAYGROUND":"No","DRINKING_WATER":"No","OWNERSHIP":"NA","PARKING_PIC":"WT","RESTROOM_PIC":"WT","PICNIC_PIC":"WT","FISHING_PIC":"WT","BOAT_L_PIC":"WT","BOAT_R_PIC":"WT","PLAY_PIC":"WT","WATER_PIC":"WT","PHOTO_FG":"Y","LABEL":"Eagle's Nest Trail Junction West","HORSE_PARKING":"WT","PHOTO_NAME":"Eagles Nest Trail Junction West"}},{"type":"Feature","id":1,"geometry":{"type":"Point","coordinates":[-122.21553914410958,37.992556180391077]},"properties":{"COMMENT_":"Pinole Ridge Trailhead North","GLOBALID":"{DC6470E9-C959-42F1-A122-4737DEA1280E}","OBJECTID":1,"TYPE":"Trail Junction","PARKING":"None","RESTROOM":"No","PICNIC_AREA":"No","FISHING":"No","BOAT_LAUNCH":"No","BOAT_RENTAL":"No","PLAYGROUND":"No","DRINKING_WATER":"No","OWNERSHIP":"NA","PARKING_PIC":"WT","RESTROOM_PIC":"WT","PICNIC_PIC":"WT","FISHING_PIC":"WT","BOAT_L_PIC":"WT","BOAT_R_PIC":"WT","PLAY_PIC":"WT","WATER_PIC":"WT","PHOTO_FG":"Y","LABEL":"Pinole Ridge Trail Junction North","HORSE_PARKING":"WT","PHOTO_NAME":"Pinole Ridge Trail Junction North"}},{"type":"Feature","id":2,"geometry":{"type":"Point","coordinates":[-122.07539762355449,37.738408942163396]},"properties":{"COMMENT_":"Chabot Staging","GLOBALID":"{E9AF0190-B749-4E2E-9AF8-CFA47C3D1F4C}","OBJECTID":2,"TYPE":"Staging Area","PARKING":"Lot","RESTROOM":"Yes","PICNIC_AREA":"No","FISHING":"No","BOAT_LAUNCH":"No","BOAT_RENTAL":"No","PLAYGROUND":"No","DRINKING_WATER":"No","OWNERSHIP":"EBMUD","PARKING_PIC":"parking","RESTROOM_PIC":"restroom","PICNIC_PIC":"WT","FISHING_PIC":"WT","BOAT_L_PIC":"WT","BOAT_R_PIC":"WT","PLAY_PIC":"WT","WATER_PIC":"WT","PHOTO_FG":"Y","LABEL":"Chabot Staging Area","HORSE_PARKING":"phYes","PHOTO_NAME":"Chabot Staging Area"}},{"type":"Feature","id":3,"geometry":{"type":"Point","coordinates":[-122.21036507661073,37.900229235074036]},"properties":{"COMMENT_":"Orinda Connector ","GLOBALID":"{BA2CA006-0BA4-4712-856C-E4BAE575CCC6}","OBJECTID":3,"TYPE":"Trail Junction","PARKING":"Limited","RESTROOM":"No","PICNIC_AREA":"No","FISHING":"No","BOAT_LAUNCH":"No","BOAT_RENTAL":"No","PLAYGROUND":"No","DRINKING_WATER":"No","OWNERSHIP":"NA","PARKING_PIC":"parking","RESTROOM_PIC":"WT","PICNIC_PIC":"WT","FISHING_PIC":"WT","BOAT_L_PIC":"WT","BOAT_R_PIC":"WT","PLAY_PIC":"WT","WATER_PIC":"WT","PHOTO_FG":"Y","LABEL":"Orinda Connector Trail Junction","HORSE_PARKING":"WT","PHOTO_NAME":"Orinda Connector Trail Junction"}},{"type":"Feature","id":4,"geometry":{"type":"Point","coordinates":[-122.1375821605438,37.822239038651993]},"properties":{"COMMENT_":"Valle Vista Staging","GLOBALID":"{88A3EB5C-EE2B-451C-AD0A-D2CAA6C1A910}","OBJECTID":4,"TYPE":"Staging Area","PARKING":"Lot","RESTROOM":"Yes","PICNIC_AREA":"No","FISHING":"No","BOAT_LAUNCH":"No","BOAT_RENTAL":"No","PLAYGROUND":"No","DRINKING_WATER":"No","OWNERSHIP":"EBMUD","PARKING_PIC":"parking","RESTROOM_PIC":"restroom","PICNIC_PIC":"WT","FISHING_PIC":"WT","BOAT_L_PIC":"WT","BOAT_R_PIC":"WT","PLAY_PIC":"WT","WATER_PIC":"WT","PHOTO_FG":"Y","LABEL":"Valle Vista Staging Area","HORSE_PARKING":"phYes","PHOTO_NAME":"Valle Vista Staging Area"}},{"type":"Feature","id":5,"geometry":{"type":"Point","coordinates":[-122.20438838665451,37.946286133590441]},"properties":{"COMMENT_":"Hampton","GLOBALID":"{2FB489EC-FC0F-48EF-A700-99D148AF12B4}","OBJECTID":5,"TYPE":"Trailhead","PARKING":"Limited","RESTROOM":"No","PICNIC_AREA":"No","FISHING":"No","BOAT_LAUNCH":"No","BOAT_RENTAL":"No","PLAYGROUND":"No","DRINKING_WATER":"No","OWNERSHIP":"NA","PARKING_PIC":"parking","RESTROOM_PIC":"WT","PICNIC_PIC":"WT","FISHING_PIC":"WT","BOAT_L_PIC":"WT","BOAT_R_PIC":"WT","PLAY_PIC":"WT","WATER_PIC":"WT","PHOTO_FG":"Y","LABEL":"Hampton Trailhead","HORSE_PARKING":"WT","PHOTO_NAME":"Hampton Trailhead"}},{"type":"Feature","id":6,"geometry":{"type":"Point","coordinates":[-122.11212752676589,37.808751409421298]},"properties":{"COMMENT_":"Rancho Laguna","GLOBALID":"{C7DFB29E-6B7F-4620-98E8-9248509596E8}","OBJECTID":6,"TYPE":"Trailhead","PARKING":"None","RESTROOM":"No","PICNIC_AREA":"No","FISHING":"No","BOAT_LAUNCH":"No","BOAT_RENTAL":"No","PLAYGROUND":"No","DRINKING_WATER":"No","OWNERSHIP":"NA","PARKING_PIC":"WT","RESTROOM_PIC":"WT","PICNIC_PIC":"WT","FISHING_PIC":"WT","BOAT_L_PIC":"WT","BOAT_R_PIC":"WT","PLAY_PIC":"WT","WATER_PIC":"WT","PHOTO_FG":"Y","LABEL":"Rancho Laguna Trailhead","HORSE_PARKING":"WT","PHOTO_NAME":"Rancho Laguna Trailhead"}},{"type":"Feature","id":7,"geometry":{"type":"Point","coordinates":[-122.23250862175185,37.912812416457037]},"properties":{"COMMENT_":"San Pablo Boat Launch","GLOBALID":"{98E01133-F1B1-4E15-9CBD-0782F5205061}","OBJECTID":7,"TYPE":"Park Entrance","PARKING":"Lot","RESTROOM":"ADA","PICNIC_AREA":"Yes","FISHING":"Yes","BOAT_LAUNCH":"Yes","BOAT_RENTAL":"Yes","PLAYGROUND":"No","DRINKING_WATER":"Yes","OWNERSHIP":"EBMUD","PARKING_PIC":"parking","RESTROOM_PIC":"ADA","PICNIC_PIC":"picnic","FISHING_PIC":"fish","BOAT_L_PIC":"boat-launch","BOAT_R_PIC":"boat-rental","PLAY_PIC":"WT","WATER_PIC":"drinking","PHOTO_FG":"Y","LABEL":"San Pablo Boat Launch Park Entrance","HORSE_PARKING":"WT","PHOTO_NAME":"San Pablo Boat Launch Park Entrance"}},{"type":"Feature","id":8,"geometry":{"type":"Point","coordinates":[-122.26539923125701,37.946138437063517]},"properties":{"COMMENT_":"Kennedy Grove Regional Rec Area","GLOBALID":"{8BFBDBB3-9A66-4991-B910-986B891344CE}","OBJECTID":8,"TYPE":"Park Entrance","PARKING":"Lot","RESTROOM":"ADA","PICNIC_AREA":"Yes","FISHING":"No","BOAT_LAUNCH":"No","BOAT_RENTAL":"No","PLAYGROUND":"Yes","DRINKING_WATER":"Yes","OWNERSHIP":"EBRPD","PARKING_PIC":"parking","RESTROOM_PIC":"ADA","PICNIC_PIC":"picnic","FISHING_PIC":"WT","BOAT_L_PIC":"WT","BOAT_R_PIC":"WT","PLAY_PIC":"playground","WATER_PIC":"drinking","PHOTO_FG":"Y","LABEL":"Kennedy Grove Regional Recreation Area Park Entrance","HORSE_PARKING":"WT","PHOTO_NAME":"Kennedy Grove Regional Recreation Area Park Entrance"}},{"type":"Feature","id":9,"geometry":{"type":"Point","coordinates":[-122.10213982160913,37.714498858554236]},"properties":{"COMMENT_":"Lake Chabot Regional Park","GLOBALID":"{EFD55225-8C97-47E3-BBC6-20551A8EBEFB}","OBJECTID":9,"TYPE":"Park Entrance","PARKING":"Lot","RESTROOM":"ADA","PICNIC_AREA":"Yes","FISHING":"Yes","BOAT_LAUNCH":"Yes","BOAT_RENTAL":"Yes","PLAYGROUND":"Yes","DRINKING_WATER":"Yes","OWNERSHIP":"EBRPD","PARKING_PIC":"parking","RESTROOM_PIC":"ADA","PICNIC_PIC":"picnic","FISHING_PIC":"fish","BOAT_L_PIC":"boat-launch","BOAT_R_PIC":"boat-rental","PLAY_PIC":"playground","WATER_PIC":"drinking","PHOTO_FG":"Y","LABEL":"Lake Chabot Regional Park Entrance","HORSE_PARKING":"WT","PHOTO_NAME":"Lake Chabot Regional Park Entrance"}},{"type":"Feature","id":10,"geometry":{"type":"Point","coordinates":[-122.13190705229684,37.731893986943938]},"properties":{"COMMENT_":"Chabot Park","GLOBALID":"{9806CED8-8506-49CA-99B6-52EB09FD9C8E}","OBJECTID":10,"TYPE":"Park Entrance","PARKING":"Lot","RESTROOM":"Yes","PICNIC_AREA":"Yes","FISHING":"No","BOAT_LAUNCH":"No","BOAT_RENTAL":"No","PLAYGROUND":"Yes","DRINKING_WATER":"Yes","OWNERSHIP":"City of San Leandro","PARKING_PIC":"parking","RESTROOM_PIC":"restroom","PICNIC_PIC":"picnic","FISHING_PIC":"WT","BOAT_L_PIC":"WT","BOAT_R_PIC":"WT","PLAY_PIC":"playground","WATER_PIC":"drinking","PHOTO_FG":"Y","LABEL":"Chabot Park Entrance","HORSE_PARKING":"WT","PHOTO_NAME":"Chabot Park Entrance"}},{"type":"Feature","id":11,"geometry":{"type":"Point","coordinates":[-122.21632715178981,37.862808968669476]},"properties":{"COMMENT_":"Skyline Trailhead South","GLOBALID":"{AFFE73E9-3217-45C9-AF98-ECFF59047BE5}","OBJECTID":11,"TYPE":"Trail Junction","PARKING":"None","RESTROOM":"No","PICNIC_AREA":"No","FISHING":"No","BOAT_LAUNCH":"No","BOAT_RENTAL":"No","PLAYGROUND":"No","DRINKING_WATER":"No","OWNERSHIP":"NA","PARKING_PIC":"WT","RESTROOM_PIC":"WT","PICNIC_PIC":"WT","FISHING_PIC":"WT","BOAT_L_PIC":"WT","BOAT_R_PIC":"WT","PLAY_PIC":"WT","WATER_PIC":"WT","PHOTO_FG":"Y","LABEL":"Skyline Trail South Junction","HORSE_PARKING":"WT","PHOTO_NAME":"Skyline Trail South Junction"}},{"type":"Feature","id":14,"geometry":{"type":"Point","coordinates":[-122.16266835161981,37.926354677654928]},"properties":{"COMMENT_":"Bear creek Trailhead East","GLOBALID":"{DFC085C7-CE28-4A82-9815-B26E87ECEEDB}","OBJECTID":14,"TYPE":"Trail Junction","PARKING":"None","RESTROOM":"No","PICNIC_AREA":"No","FISHING":"No","BOAT_LAUNCH":"No","BOAT_RENTAL":"No","PLAYGROUND":"No","DRINKING_WATER":"No","OWNERSHIP":"NA","PARKING_PIC":"WT","RESTROOM_PIC":"WT","PICNIC_PIC":"WT","FISHING_PIC":"WT","BOAT_L_PIC":"WT","BOAT_R_PIC":"WT","PLAY_PIC":"WT","WATER_PIC":"WT","PHOTO_FG":"Y","LABEL":"Bear Creek Trail Junction East","HORSE_PARKING":"WT","PHOTO_NAME":"Bear Creek Trail Junction East"}},{"type":"Feature","id":15,"geometry":{"type":"Point","coordinates":[-122.1267861255772,37.812440093481491]},"properties":{"COMMENT_":"Rocky Ridge Trail Junction 1","GLOBALID":"{800F5ED8-BFBB-4E96-A8D4-3C8D4C4F6E28}","OBJECTID":15,"TYPE":"Trail Junction","PARKING":"None","RESTROOM":"No","PICNIC_AREA":"No","FISHING":"No","BOAT_LAUNCH":"No","BOAT_RENTAL":"No","PLAYGROUND":"No","DRINKING_WATER":"No","OWNERSHIP":"NA","PARKING_PIC":"WT","RESTROOM_PIC":"WT","PICNIC_PIC":"WT","FISHING_PIC":"WT","BOAT_L_PIC":"WT","BOAT_R_PIC":"WT","PLAY_PIC":"WT","WATER_PIC":"WT","PHOTO_FG":"Y","LABEL":"Rocky Ridge Trail Junction 1","HORSE_PARKING":"WT","PHOTO_NAME":"Rocky Ridge Trail Junction 1"}},{"type":"Feature","id":16,"geometry":{"type":"Point","coordinates":[-122.06141215247953,37.817051888040886]},"properties":{"COMMENT_":"Rocky Ridge Trail Junction 2","GLOBALID":"{BE79C649-9C76-4CCC-8EC1-2F28E81CEB71}","OBJECTID":16,"TYPE":"Trail Junction","PARKING":"None","RESTROOM":"No","PICNIC_AREA":"No","FISHING":"No","BOAT_LAUNCH":"No","BOAT_RENTAL":"No","PLAYGROUND":"No","DRINKING_WATER":"No","OWNERSHIP":"NA","PARKING_PIC":"WT","RESTROOM_PIC":"WT","PICNIC_PIC":"WT","FISHING_PIC":"WT","BOAT_L_PIC":"WT","BOAT_R_PIC":"WT","PLAY_PIC":"WT","WATER_PIC":"WT","PHOTO_FG":"Y","LABEL":"Rocky Ridge Loop Trail Junction 1","HORSE_PARKING":"WT","PHOTO_NAME":"Rocky Ridge Loop Trail Junction 1"}},{"type":"Feature","id":17,"geometry":{"type":"Point","coordinates":[-122.06141391236214,37.743376163150892]},"properties":{"COMMENT_":"Dinosaur Trailhead","GLOBALID":"{8AC479FF-F537-44BA-9D3B-D68BF816B9AD}","OBJECTID":17,"TYPE":"Trail Junction","PARKING":"None","RESTROOM":"No","PICNIC_AREA":"No","FISHING":"No","BOAT_LAUNCH":"No","BOAT_RENTAL":"No","PLAYGROUND":"No","DRINKING_WATER":"No","OWNERSHIP":"NA","PARKING_PIC":"WT","RESTROOM_PIC":"WT","PICNIC_PIC":"WT","FISHING_PIC":"WT","BOAT_L_PIC":"WT","BOAT_R_PIC":"WT","PLAY_PIC":"WT","WATER_PIC":"WT","PHOTO_FG":"Y","LABEL":"Dinosaur Trail Junction","HORSE_PARKING":"WT","PHOTO_NAME":"Dinosaur Trail Junction"}},{"type":"Feature","id":18,"geometry":{"type":"Point","coordinates":[-122.25776005153779,37.933439957285593]},"properties":{"COMMENT_":"San Pablo Recreation Area","GLOBALID":"{97E05560-6BD0-4364-9C60-0B368FF93C19}","OBJECTID":18,"TYPE":"Park Entrance","PARKING":"Lot","RESTROOM":"ADA","PICNIC_AREA":"Yes","FISHING":"Yes","BOAT_LAUNCH":"No","BOAT_RENTAL":"Yes","PLAYGROUND":"Yes","DRINKING_WATER":"Yes","OWNERSHIP":"EBMUD","PARKING_PIC":"parking","RESTROOM_PIC":"ADA","PICNIC_PIC":"picnic","FISHING_PIC":"fish","BOAT_L_PIC":"WT","BOAT_R_PIC":"boat-rental","PLAY_PIC":"playground","WATER_PIC":"drinking","PHOTO_FG":"Y","LABEL":"San Pablo Recreation Area Park Entrance","HORSE_PARKING":"WT","PHOTO_NAME":"San Pablo Recreation Area Park Entrance"}},{"type":"Feature","id":19,"geometry":{"type":"Point","coordinates":[-122.1139007080909,37.809615047070466]},"properties":{"COMMENT_":"Rancho Laguna Park","GLOBALID":"{69EF80F1-EA8B-414C-BE58-7CF8CE36E643}","OBJECTID":19,"TYPE":"Park Entrance","PARKING":"Lot","RESTROOM":"ADA","PICNIC_AREA":"Yes","FISHING":"No","BOAT_LAUNCH":"No","BOAT_RENTAL":"No","PLAYGROUND":"Yes","DRINKING_WATER":"Yes","OWNERSHIP":"Town of Moraga","PARKING_PIC":"parking","RESTROOM_PIC":"ADA","PICNIC_PIC":"picnic","FISHING_PIC":"WT","BOAT_L_PIC":"WT","BOAT_R_PIC":"WT","PLAY_PIC":"playground","WATER_PIC":"drinking","PHOTO_FG":"Y","LABEL":"Rancho Laguna Park Entrance","HORSE_PARKING":"WT","PHOTO_NAME":"Rancho Laguna Park Entrance"}}]}