{"type":"FeatureCollection","features":[{"type":"Feature","id":38,"geometry":{"type":"Point","coordinates":[-122.11212752709949,37.808751409680482]},"properties":{"OBJECTID_1":38,"OBJECTID":21,"TRAIL_NAME":"Rancho Laguna Connector","TRAIL_NAME_1":"Rancho Laguna Connector","END_POINT":"START"}},{"type":"Feature","id":39,"geometry":{"type":"Point","coordinates":[-122.14337736461862,37.884114038876127]},"properties":{"OBJECTID_1":39,"OBJECTID":35,"TRAIL_NAME":"Recreation Loop","TRAIL_NAME_1":"Recreation Loop","END_POINT":"START"}},{"type":"Feature","id":40,"geometry":{"type":"Point","coordinates":[-122.21036507671521,37.900229235114999]},"properties":{"OBJECTID_1":40,"OBJECTID":36,"TRAIL_NAME":"Orinda Connector","TRAIL_NAME_1":"Orinda Connector","END_POINT":"START"}},{"type":"Feature","id":41,"geometry":{"type":"Point","coordinates":[-122.20083858056938,37.963571716374894]},"properties":{"OBJECTID_1":41,"OBJECTID":37,"TRAIL_NAME":"Pinole Valley Multi-Use","TRAIL_NAME_1":"Pinole Valley Multi-Use","END_POINT":"START"}},{"type":"Feature","id":45,"geometry":{"type":"Point","coordinates":[-122.24214069098359,37.971842176676091]},"properties":{"OBJECTID_1":45,"OBJECTID":37,"TRAIL_NAME":"Pinole Valley Multi-Use","TRAIL_NAME_1":"Pinole Valley Multi-Use","END_POINT":"END"}},{"type":"Feature","id":46,"geometry":{"type":"Point","coordinates":[-122.26451753696313,37.930118352585495]},"properties":{"OBJECTID_1":46,"OBJECTID":40,"TRAIL_NAME":"Eagle's Nest","TRAIL_NAME_1":"Eagles Nest","END_POINT":"END"}},{"type":"Feature","id":47,"geometry":{"type":"Point","coordinates":[-122.21632715213676,37.862808968813191]},"properties":{"OBJECTID_1":47,"OBJECTID":42,"TRAIL_NAME":"Skyline","TRAIL_NAME_1":"Skyline","END_POINT":"END"}},{"type":"Feature","id":48,"geometry":{"type":"Point","coordinates":[-122.07932308940418,37.814454262155891]},"properties":{"OBJECTID_1":48,"OBJECTID":46,"TRAIL_NAME":"Carr Ranch Loop","TRAIL_NAME_1":"Carr Ranch Loop","END_POINT":"END"}},{"type":"Feature","id":49,"geometry":{"type":"Point","coordinates":[-122.13146082430255,37.882728712889431]},"properties":{"OBJECTID_1":49,"OBJECTID":52,"TRAIL_NAME":"Sunset","TRAIL_NAME_1":"Sunset","END_POINT":"END"}},{"type":"Feature","id":50,"geometry":{"type":"Point","coordinates":[-122.20375647659714,37.938253171885606]},"properties":{"OBJECTID_1":50,"OBJECTID":30,"TRAIL_NAME":"Hampton","TRAIL_NAME_1":"Hampton","END_POINT":"END"}},{"type":"Feature","id":51,"geometry":{"type":"Point","coordinates":[-122.21554469706641,37.992554950136125]},"properties":{"OBJECTID_1":51,"OBJECTID":38,"TRAIL_NAME":"Pinole Ridge","TRAIL_NAME_1":"Pinole Ridge","END_POINT":"END"}},{"type":"Feature","id":52,"geometry":{"type":"Point","coordinates":[-122.06401355386953,37.817000747666931]},"properties":{"OBJECTID_1":52,"OBJECTID":25,"TRAIL_NAME":"Rocky Ridge Loop","TRAIL_NAME_1":"Rocky Ridge Loop","END_POINT":"END"}},{"type":"Feature","id":53,"geometry":{"type":"Point","coordinates":[-122.12665013934358,37.814924533733404]},"properties":{"OBJECTID_1":53,"OBJECTID":19,"TRAIL_NAME":"Rimer Creek","TRAIL_NAME_1":"Rimer Creek","END_POINT":"END"}},{"type":"Feature","id":54,"geometry":{"type":"Point","coordinates":[-122.2655453542769,37.944582214678924]},"properties":{"OBJECTID_1":54,"OBJECTID":2,"TRAIL_NAME":"Kennedy Grove Connector","TRAIL_NAME_1":"Kennedy Grove Connector","END_POINT":"END"}},{"type":"Feature","id":55,"geometry":{"type":"Point","coordinates":[-122.26343825157343,37.942074519153117]},"properties":{"OBJECTID_1":55,"OBJECTID":3,"TRAIL_NAME":"Old San Pablo North","TRAIL_NAME_1":"Old San Pablo North","END_POINT":"END"}},{"type":"Feature","id":56,"geometry":{"type":"Point","coordinates":[-122.20641153455591,37.911036049836014]},"properties":{"OBJECTID_1":56,"OBJECTID":4,"TRAIL_NAME":"Oursan","TRAIL_NAME_1":"Oursan","END_POINT":"END"}},{"type":"Feature","id":57,"geometry":{"type":"Point","coordinates":[-122.06141215228267,37.817051888210706]},"properties":{"OBJECTID_1":57,"OBJECTID":5,"TRAIL_NAME":"Rocky Ridge","TRAIL_NAME_1":"Rocky Ridge","END_POINT":"END"}},{"type":"Feature","id":58,"geometry":{"type":"Point","coordinates":[-122.23204606342115,37.911761146099359]},"properties":{"OBJECTID_1":58,"OBJECTID":9,"TRAIL_NAME":"Inspiration","TRAIL_NAME_1":"Inspiration","END_POINT":"END"}},{"type":"Feature","id":59,"geometry":{"type":"Point","coordinates":[-122.13702244963508,37.883612795959216]},"properties":{"OBJECTID_1":59,"OBJECTID":10,"TRAIL_NAME":"Lakeside Nature","TRAIL_NAME_1":"Lakeside Nature","END_POINT":"END"}},{"type":"Feature","id":60,"geometry":{"type":"Point","coordinates":[-122.15277956716679,37.884010463936534]},"properties":{"OBJECTID_1":60,"OBJECTID":12,"TRAIL_NAME":"Westview","TRAIL_NAME_1":"Westview","END_POINT":"END"}},{"type":"Feature","id":61,"geometry":{"type":"Point","coordinates":[-122.21265444489488,37.901398070036279]},"properties":{"OBJECTID_1":61,"OBJECTID":6,"TRAIL_NAME":"Bear Creek","TRAIL_NAME_1":"Bear Creek","END_POINT":"END"}},{"type":"Feature","id":62,"geometry":{"type":"Point","coordinates":[-122.13511618327968,37.882979730574718]},"properties":{"OBJECTID_1":62,"OBJECTID":1,"TRAIL_NAME":"Rim","TRAIL_NAME_1":"Rim","END_POINT":"END"}},{"type":"Feature","id":63,"geometry":{"type":"Point","coordinates":[-122.06169481078007,37.799535323995954]},"properties":{"OBJECTID_1":63,"OBJECTID":24,"TRAIL_NAME":"Ramage Peak","TRAIL_NAME_1":"Ramage Peak","END_POINT":"END"}},{"type":"Feature","id":64,"geometry":{"type":"Point","coordinates":[-122.22030276769921,37.876023563353577]},"properties":{"OBJECTID_1":64,"OBJECTID":13,"TRAIL_NAME":"De Laveaga","TRAIL_NAME_1":"De Laveaga","END_POINT":"END"}},{"type":"Feature","id":65,"geometry":{"type":"Point","coordinates":[-122.15547821587474,37.873782118650652]},"properties":{"OBJECTID_1":65,"OBJECTID":15,"TRAIL_NAME":"Canyon","TRAIL_NAME_1":"Canyon","END_POINT":"END"}},{"type":"Feature","id":66,"geometry":{"type":"Point","coordinates":[-122.14050147740679,37.873258149556079]},"properties":{"OBJECTID_1":66,"OBJECTID":16,"TRAIL_NAME":"Campolindo","TRAIL_NAME_1":"Campolindo","END_POINT":"END"}},{"type":"Feature","id":67,"geometry":{"type":"Point","coordinates":[-122.13895833524202,37.822692405659616]},"properties":{"OBJECTID_1":67,"OBJECTID":17,"TRAIL_NAME":"Riche Loop","TRAIL_NAME_1":"Riche Loop","END_POINT":"END"}},{"type":"Feature","id":68,"geometry":{"type":"Point","coordinates":[-122.11341480032522,37.804011158523387]},"properties":{"OBJECTID_1":68,"OBJECTID":23,"TRAIL_NAME":"King Canyon Loop","TRAIL_NAME_1":"King Canyon Loop","END_POINT":"END"}},{"type":"Feature","id":69,"geometry":{"type":"Point","coordinates":[-122.23423196364638,37.915570453360452]},"properties":{"OBJECTID_1":69,"OBJECTID":28,"TRAIL_NAME":"Old San Pablo South","TRAIL_NAME_1":"Old San Pablo South","END_POINT":"END"}},{"type":"Feature","id":70,"geometry":{"type":"Point","coordinates":[-122.12927666680896,37.875219758327276]},"properties":{"OBJECTID_1":70,"OBJECTID":31,"TRAIL_NAME":"Moraga Road to Reservoir Rim","TRAIL_NAME_1":"Moraga Road to Reservoir Rim","END_POINT":"END"}},{"type":"Feature","id":71,"geometry":{"type":"Point","coordinates":[-122.14110173257794,37.885176399258377]},"properties":{"OBJECTID_1":71,"OBJECTID":34,"TRAIL_NAME":"Entrance","TRAIL_NAME_1":"Entrance","END_POINT":"END"}},{"type":"Feature","id":72,"geometry":{"type":"Point","coordinates":[-122.11147354728446,37.804822680696219]},"properties":{"OBJECTID_1":72,"OBJECTID":21,"TRAIL_NAME":"Rancho Laguna Connector","TRAIL_NAME_1":"Rancho Laguna Connector","END_POINT":"END"}},{"type":"Feature","id":73,"geometry":{"type":"Point","coordinates":[-122.14884408922956,37.814436375646046]},"properties":{"OBJECTID_1":73,"OBJECTID":55,"TRAIL_NAME":"Redwood","TRAIL_NAME_1":"Redwood","END_POINT":"END"}},{"type":"Feature","id":74,"geometry":{"type":"Point","coordinates":[-122.22320389038399,37.996020918108819]},"properties":{"OBJECTID_1":74,"OBJECTID":62,"TRAIL_NAME":"Franklin Ridge Connector","TRAIL_NAME_1":"Franklin Ridge Connector","END_POINT":"END"}},{"type":"Feature","id":75,"geometry":{"type":"Point","coordinates":[-122.2127178866152,37.915070936285495]},"properties":{"OBJECTID_1":75,"OBJECTID":67,"TRAIL_NAME":"Briones Dam Connector","TRAIL_NAME_1":"Briones Dam Connector","END_POINT":"END"}},{"type":"Feature","id":76,"geometry":{"type":"Point","coordinates":[-122.13625101779158,37.876079133709005]},"properties":{"OBJECTID_1":76,"OBJECTID":14,"TRAIL_NAME":"Big Oak","TRAIL_NAME_1":"Big Oak","END_POINT":"END"}},{"type":"Feature","id":77,"geometry":{"type":"Point","coordinates":[-122.14212523348679,37.870888651131089]},"properties":{"OBJECTID_1":77,"OBJECTID":27,"TRAIL_NAME":"Rheem","TRAIL_NAME_1":"Rheem","END_POINT":"END"}},{"type":"Feature","id":78,"geometry":{"type":"Point","coordinates":[-122.2208303509605,37.875703236344883]},"properties":{"OBJECTID_1":78,"OBJECTID":42,"TRAIL_NAME":"Skyline Trail Connector","TRAIL_NAME_1":"Skyline Trail Connector","END_POINT":"END"}},{"type":"Feature","id":79,"geometry":{"type":"Point","coordinates":[-122.20379388963208,37.912987302097655]},"properties":{"OBJECTID_1":79,"OBJECTID":6,"TRAIL_NAME":"Briones Overlook Connector","TRAIL_NAME_1":"Briones Overlook Connector","END_POINT":"END"}},{"type":"Feature","id":80,"geometry":{"type":"Point","coordinates":[-122.26044581514002,37.971896654220828]},"properties":{"OBJECTID_1":80,"OBJECTID":39,"TRAIL_NAME":"Sobrante Ridge Connector","TRAIL_NAME_1":"Sobrante Ridge Connector","END_POINT":"END"}},{"type":"Feature","id":81,"geometry":{"type":"Point","coordinates":[-122.0614139120823,37.743376163275521]},"properties":{"OBJECTID_1":81,"OBJECTID":63,"TRAIL_NAME":"Dinosaur","TRAIL_NAME_1":"Dinosaur","END_POINT":"END"}},{"type":"Feature","id":82,"geometry":{"type":"Point","coordinates":[-122.14439825502323,37.883339997621597]},"properties":{"OBJECTID_1":82,"OBJECTID":35,"TRAIL_NAME":"Recreation Loop","TRAIL_NAME_1":"Recreation Loop","END_POINT":"END"}},{"type":"Feature","id":83,"geometry":{"type":"Point","coordinates":[-122.21671051537079,37.904757442757415]},"properties":{"OBJECTID_1":83,"OBJECTID":36,"TRAIL_NAME":"Orinda Connector","TRAIL_NAME_1":"Orinda Connector","END_POINT":"END"}},{"type":"Feature","id":3,"geometry":{"type":"Point","coordinates":[-122.25793303055927,37.935522397949811]},"properties":{"OBJECTID_1":3,"OBJECTID":40,"TRAIL_NAME":"Eagle's Nest","TRAIL_NAME_1":"Eagles Nest","END_POINT":"START"}},{"type":"Feature","id":4,"geometry":{"type":"Point","coordinates":[-122.22145815656313,37.879879796226206]},"properties":{"OBJECTID_1":4,"OBJECTID":42,"TRAIL_NAME":"Skyline","TRAIL_NAME_1":"Skyline","END_POINT":"START"}},{"type":"Feature","id":5,"geometry":{"type":"Point","coordinates":[-122.09136372389192,37.812834079774873]},"properties":{"OBJECTID_1":5,"OBJECTID":46,"TRAIL_NAME":"Carr Ranch Loop","TRAIL_NAME_1":"Carr Ranch Loop","END_POINT":"START"}},{"type":"Feature","id":6,"geometry":{"type":"Point","coordinates":[-122.13714766220927,37.884062276948569]},"properties":{"OBJECTID_1":6,"OBJECTID":52,"TRAIL_NAME":"Sunset","TRAIL_NAME_1":"Sunset","END_POINT":"START"}},{"type":"Feature","id":7,"geometry":{"type":"Point","coordinates":[-122.20438910974609,37.94628612340793]},"properties":{"OBJECTID_1":7,"OBJECTID":30,"TRAIL_NAME":"Hampton","TRAIL_NAME_1":"Hampton","END_POINT":"START"}},{"type":"Feature","id":8,"geometry":{"type":"Point","coordinates":[-122.20205530640087,37.96398656161292]},"properties":{"OBJECTID_1":8,"OBJECTID":38,"TRAIL_NAME":"Pinole Ridge","TRAIL_NAME_1":"Pinole Ridge","END_POINT":"START"}},{"type":"Feature","id":9,"geometry":{"type":"Point","coordinates":[-122.07415113347899,37.813372383093856]},"properties":{"OBJECTID_1":9,"OBJECTID":25,"TRAIL_NAME":"Rocky Ridge Loop","TRAIL_NAME_1":"Rocky Ridge Loop","END_POINT":"START"}},{"type":"Feature","id":10,"geometry":{"type":"Point","coordinates":[-122.13285411310487,37.821798441473788]},"properties":{"OBJECTID_1":10,"OBJECTID":19,"TRAIL_NAME":"Rimer Creek","TRAIL_NAME_1":"Rimer Creek","END_POINT":"START"}},{"type":"Feature","id":11,"geometry":{"type":"Point","coordinates":[-122.26343825157343,37.942074519153117]},"properties":{"OBJECTID_1":11,"OBJECTID":2,"TRAIL_NAME":"Kennedy Grove Connector","TRAIL_NAME_1":"Kennedy Grove Connector","END_POINT":"START"}},{"type":"Feature","id":12,"geometry":{"type":"Point","coordinates":[-122.23306439632216,37.914101439521815]},"properties":{"OBJECTID_1":12,"OBJECTID":3,"TRAIL_NAME":"Old San Pablo North","TRAIL_NAME_1":"Old San Pablo North","END_POINT":"START"}},{"type":"Feature","id":13,"geometry":{"type":"Point","coordinates":[-122.16480273121884,37.923115146346603]},"properties":{"OBJECTID_1":13,"OBJECTID":4,"TRAIL_NAME":"Oursan","TRAIL_NAME_1":"Oursan","END_POINT":"START"}},{"type":"Feature","id":14,"geometry":{"type":"Point","coordinates":[-122.13895833524202,37.822692405659616]},"properties":{"OBJECTID_1":14,"OBJECTID":5,"TRAIL_NAME":"Rocky Ridge","TRAIL_NAME_1":"Rocky Ridge","END_POINT":"START"}},{"type":"Feature","id":15,"geometry":{"type":"Point","coordinates":[-122.24488380360317,37.904923403239145]},"properties":{"OBJECTID_1":15,"OBJECTID":9,"TRAIL_NAME":"Inspiration","TRAIL_NAME_1":"Inspiration","END_POINT":"START"}},{"type":"Feature","id":16,"geometry":{"type":"Point","coordinates":[-122.13702244963508,37.883612795959216]},"properties":{"OBJECTID_1":16,"OBJECTID":10,"TRAIL_NAME":"Lakeside Nature","TRAIL_NAME_1":"Lakeside Nature","END_POINT":"START"}},{"type":"Feature","id":17,"geometry":{"type":"Point","coordinates":[-122.14864173562698,37.878899415650878]},"properties":{"OBJECTID_1":17,"OBJECTID":12,"TRAIL_NAME":"Westview","TRAIL_NAME_1":"Westview","END_POINT":"START"}},{"type":"Feature","id":18,"geometry":{"type":"Point","coordinates":[-122.16296397954527,37.926379653968141]},"properties":{"OBJECTID_1":18,"OBJECTID":6,"TRAIL_NAME":"Bear Creek","TRAIL_NAME_1":"Bear Creek","END_POINT":"START"}},{"type":"Feature","id":19,"geometry":{"type":"Point","coordinates":[-122.14077203110573,37.885592103172513]},"properties":{"OBJECTID_1":19,"OBJECTID":1,"TRAIL_NAME":"Rim","TRAIL_NAME_1":"Rim","END_POINT":"START"}},{"type":"Feature","id":20,"geometry":{"type":"Point","coordinates":[-122.07471315186008,37.738832115204218]},"properties":{"OBJECTID_1":20,"OBJECTID":24,"TRAIL_NAME":"Ramage Peak","TRAIL_NAME_1":"Ramage Peak","END_POINT":"START"}},{"type":"Feature","id":21,"geometry":{"type":"Point","coordinates":[-122.18802950203478,37.880749644943627]},"properties":{"OBJECTID_1":21,"OBJECTID":13,"TRAIL_NAME":"De Laveaga","TRAIL_NAME_1":"De Laveaga","END_POINT":"START"}},{"type":"Feature","id":22,"geometry":{"type":"Point","coordinates":[-122.1467958144991,37.877349254120986]},"properties":{"OBJECTID_1":22,"OBJECTID":15,"TRAIL_NAME":"Canyon","TRAIL_NAME_1":"Canyon","END_POINT":"START"}},{"type":"Feature","id":23,"geometry":{"type":"Point","coordinates":[-122.14575336003605,37.877711603568763]},"properties":{"OBJECTID_1":23,"OBJECTID":16,"TRAIL_NAME":"Campolindo","TRAIL_NAME_1":"Campolindo","END_POINT":"START"}},{"type":"Feature","id":24,"geometry":{"type":"Point","coordinates":[-122.1363185378633,37.820983754399734]},"properties":{"OBJECTID_1":24,"OBJECTID":17,"TRAIL_NAME":"Riche Loop","TRAIL_NAME_1":"Riche Loop","END_POINT":"START"}},{"type":"Feature","id":25,"geometry":{"type":"Point","coordinates":[-122.13096597115862,37.815062419362434]},"properties":{"OBJECTID_1":25,"OBJECTID":23,"TRAIL_NAME":"King Canyon Loop","TRAIL_NAME_1":"King Canyon Loop","END_POINT":"START"}},{"type":"Feature","id":26,"geometry":{"type":"Point","coordinates":[-122.21671051537079,37.904757442757415]},"properties":{"OBJECTID_1":26,"OBJECTID":28,"TRAIL_NAME":"Old San Pablo South","TRAIL_NAME_1":"Old San Pablo South","END_POINT":"START"}},{"type":"Feature","id":27,"geometry":{"type":"Point","coordinates":[-122.13122911734975,37.875500389482809]},"properties":{"OBJECTID_1":27,"OBJECTID":31,"TRAIL_NAME":"Moraga Road to Reservoir Rim","TRAIL_NAME_1":"Moraga Road to Reservoir Rim","END_POINT":"START"}},{"type":"Feature","id":28,"geometry":{"type":"Point","coordinates":[-122.13962707168226,37.888007788967968]},"properties":{"OBJECTID_1":28,"OBJECTID":34,"TRAIL_NAME":"Entrance","TRAIL_NAME_1":"Entrance","END_POINT":"START"}},{"type":"Feature","id":29,"geometry":{"type":"Point","coordinates":[-122.13895833524202,37.822692405659616]},"properties":{"OBJECTID_1":29,"OBJECTID":55,"TRAIL_NAME":"Redwood","TRAIL_NAME_1":"Redwood","END_POINT":"START"}},{"type":"Feature","id":30,"geometry":{"type":"Point","coordinates":[-122.22302012741621,37.995562494254173]},"properties":{"OBJECTID_1":30,"OBJECTID":62,"TRAIL_NAME":"Franklin Ridge Connector","TRAIL_NAME_1":"Franklin Ridge Connector","END_POINT":"START"}},{"type":"Feature","id":31,"geometry":{"type":"Point","coordinates":[-122.21220891195497,37.907738987686621]},"properties":{"OBJECTID_1":31,"OBJECTID":67,"TRAIL_NAME":"Briones Dam Connector","TRAIL_NAME_1":"Briones Dam Connector","END_POINT":"START"}},{"type":"Feature","id":32,"geometry":{"type":"Point","coordinates":[-122.13968297474069,37.880521056328135]},"properties":{"OBJECTID_1":32,"OBJECTID":14,"TRAIL_NAME":"Big Oak","TRAIL_NAME_1":"Big Oak","END_POINT":"START"}},{"type":"Feature","id":33,"geometry":{"type":"Point","coordinates":[-122.14753349304411,37.873585162670494]},"properties":{"OBJECTID_1":33,"OBJECTID":27,"TRAIL_NAME":"Rheem","TRAIL_NAME_1":"Rheem","END_POINT":"START"}},{"type":"Feature","id":34,"geometry":{"type":"Point","coordinates":[-122.22121386151824,37.875814987305169]},"properties":{"OBJECTID_1":34,"OBJECTID":42,"TRAIL_NAME":"Skyline Trail Connector","TRAIL_NAME_1":"Skyline Trail Connector","END_POINT":"START"}},{"type":"Feature","id":35,"geometry":{"type":"Point","coordinates":[-122.20216453884447,37.91421399328744]},"properties":{"OBJECTID_1":35,"OBJECTID":6,"TRAIL_NAME":"Briones Overlook Connector","TRAIL_NAME_1":"Briones Overlook Connector","END_POINT":"START"}},{"type":"Feature","id":36,"geometry":{"type":"Point","coordinates":[-122.24485367680349,37.971648289570119]},"properties":{"OBJECTID_1":36,"OBJECTID":39,"TRAIL_NAME":"Sobrante Ridge Connector","TRAIL_NAME_1":"Sobrante Ridge Connector","END_POINT":"START"}},{"type":"Feature","id":37,"geometry":{"type":"Point","coordinates":[-122.07336635177204,37.749146713783041]},"properties":{"OBJECTID_1":37,"OBJECTID":63,"TRAIL_NAME":"Dinosaur","TRAIL_NAME_1":"Dinosaur","END_POINT":"START"}}]}